Postal_Code	Name	Lon	Lat	Language
8660	De Panne	2.5905441	51.096303	NL
8630	De Moeren	2.600584	51.041709	NL
8660	Adinkerke	2.6034114	51.0751267	NL
8630	Houtem (W.-Vl.)	2.6096642	51.0104746	NL
8978	Watou	2.6206457	50.8588172	NL
8691	Leisele	2.6234329	50.9855486	NL
8972	Roesbrugge-Haringe	2.6247955	50.918879	NL
8630	Bulskamp	2.6500228	51.0413505	NL
8670	Koksijde	2.6500795	51.1053908	NL
8630	Beauvoorde	2.65314	51.01456	NL
8630	Wulveringem	2.6544608	51.014517	NL
8691	Izenberge	2.6547262	50.9942337	NL
8972	Proven	2.6560368	50.8904872	NL
8630	Vinkem	2.6628519	51.0161527	NL
8630	Veurne	2.6680059	51.0731945	NL
8691	Stavele	2.6699315	50.938552	NL
8691	Gijverinkhove	2.6725749	50.9761349	NL
8670	Oostduinkerke	2.6824907	51.1158173	NL
8690	Sint-Rijkers	2.687814	50.9915951	NL
8972	Krombeke	2.6885943	50.9148551	NL
8630	Steenkerke (W.-Vl.)	2.6892647	51.0574271	NL
8690	Hoogstade	2.6916569	50.9795594	NL
8670	Wulpen	2.6991737	51.1007563	NL
8690	Oeren	2.7052385	51.0230442	NL
8690	Alveringem	2.7130822	51.0122085	NL
8640	Westvleteren	2.716907	50.9276053	NL
8970	Poperinge	2.7211761	50.8452065	NL
8630	Eggewaartskapelle	2.7218286	51.0496759	NL
8691	Beveren-aan-den-Ijzer	2.7301883	51.0301989	NL
8647	Pollinkhove	2.7322734	50.9710805	NL
8640	Vleteren	2.7327547	50.9296908	NL
8630	Avekapelle	2.7329511	51.0663475	NL
8630	Booitshoeke	2.7332623	51.0869455	NL
8640	Oostvleteren	2.7367963	50.9318028	NL
8954	Westouter	2.7464372	50.7971484	NL
8620	Nieuwpoort	2.7480064	51.1285059	NL
8647	Lo	2.7489727	50.9806703	NL
8630	Zoutenaaie	2.75075	51.0485937	NL
8434	Lombardsijde	2.7565537	51.1478198	NL
8620	Ramskapelle (Nieuwpoort)	2.7620106	51.1095483	NL
8970	Reningelst	2.7634047	50.8170545	NL
8600	Lampernisse	2.7685298	51.0325467	NL
8434	Westende	2.7695246	51.1519765	NL
8647	Reninge	2.77157	50.97334	NL
8647	Lo-Reninge	2.77157	50.97334	FR
8958	Loker	2.7721461	50.7817391	NL
8620	Sint-Joris (Nieuwpoort)	2.7723581	51.1291298	NL
8951	Dranouter	2.7829724	50.7659194	NL
8640	Woesten	2.7891271	50.9006632	NL
8600	Pervijze	2.7941219	51.0733467	NL
8600	Oostkerke (Diksmuide)	2.7972622	51.0464297	NL
8600	Nieuwkapelle	2.7999063	50.999433	NL
8430	Middelkerke	2.8060231	51.1798869	NL
8600	Oudekapelle	2.8080138	51.0135407	NL
8647	Noordschote	2.810466	50.9546429	NL
8906	Elverdinge	2.817508	50.8858801	NL
8433	Mannekensvere	2.8181826	51.1259337	NL
8908	Vlamertinge	2.8243473	50.8536639	NL
8600	Stuivekenskerke	2.825052	51.0767668	NL
8950	Heuvelland	2.8250977	50.733506	NL
8950	Nieuwkerke	2.8252871	50.7460655	NL
8431	Wilskerke	2.825943	51.1796383	NL
8956	Kemmel	2.8286179	50.7832795	NL
8904	Zuidschote	2.8295441	50.9130344	NL
8900	Dikkebus	2.8318862	50.8205936	NL
8600	Sint-Jacobs-Kapelle	2.8338522	51.0164049	NL
8600	Kaaskerke	2.8364554	51.0357927	NL
8433	Schore	2.8392235	51.1117368	NL
8433	Spermalie	2.84643	51.12131	NL
8433	Slijpe	2.8472073	51.1553124	NL
8900	Brielen	2.8501053	50.867386	NL
8650	Merkem	2.8523982	50.9528136	NL
8952	Wulvergem	2.8524263	50.7601685	NL
8904	Boezinge	2.8547932	50.8967457	NL
8600	Diksmuide	2.8639865	51.0317064	NL
8920	Bikschote	2.8646858	50.9258047	NL
8600	Woumen	2.8697759	50.9983803	NL
7782	Ploegsteert	2.8733669	50.7323288	NL
8902	Voormezele	2.875805	50.8165607	NL
8432	Leffinge	2.87711	51.17567	NL
8900	Ieper	2.8779465	50.8492265	NL
8600	Keiem	2.8821755	51.0807421	NL
8953	Wijtschate	2.8831131	50.7858578	NL
8600	Beerst	2.8868758	51.0589145	NL
8600	Leke	2.8904342	51.1004367	NL
8957	Mesen	2.896138	50.764271	NL
8957	Messines	2.896138	50.764271	FR
7783	Bizet	2.8975904	50.703152	NL
8400	Oostende	2.9	51.2166667	NL
8900	Sint-Jan	2.9021437	50.866914	NL
8600	Esen	2.9021449	51.0294434	NL
8650	Klerken	2.9041727	50.9980304	NL
8400	Stene	2.9089685	51.2244157	NL
8600	Vladslo	2.916271	51.0464012	NL
8920	Langemark-Poelkapelle	2.9180556	50.9133333	NL
8920	Langemark	2.920005	50.9135965	NL
8470	Zevekote	2.9200416	51.1375112	NL
8680	Zande	2.9222322	51.1200517	NL
8902	Zillebeke	2.9225399	50.8345035	NL
8902	Hollebeke	2.9371958	50.8053761	NL
8470	Snaaskerke	2.939082	51.1775854	NL
8650	Houthulst	2.9457764	50.9773885	NL
7784	Waasten	2.9488295	50.7527699	NL
7784	Warneton	2.9488295	50.7527699	FR
8470	Moere	2.9559016	51.1225897	NL
8920	Poelkapelle	2.9565978	50.9176532	NL
8610	Zarren	2.9589059	51.0184331	NL
7784	Bas-Warneton	2.9610169	50.7591263	FR
7784	Neerwaasten	2.9610169	50.7591263	NL
8680	Bovekerke	2.9627034	51.0544659	NL
7781	Houthem (Comines)	2.9641654	50.7867816	NL
8610	Werken	2.9646703	51.0291439	NL
8470	Gistel	2.9676432	51.1562662	NL
8450	Bredene	2.9728091	51.2345888	NL
8400	Zandvoorde (Oostende)	2.9750305	51.2012273	NL
8680	Koekelare	2.977801	51.089265	NL
8980	Zandvoorde (Zonnebeke)	2.9816989	50.8123365	NL
8980	Zonnebeke	2.9874714	50.8727334	NL
8980	Geluveld	2.9939124	50.8338478	NL
7780	Comines	2.9997061	50.7687459	FR
7780	Komen	2.9997061	50.7687459	NL
7780	Comines-Warneton	2.9997573	50.7811468	FR
7780	Komen-Waasten	2.9997573	50.7811468	NL
8610	Handzame	3.0031283	51.025671	NL
8460	Oudenburg	3.0068564	51.1836837	NL
8480	Ichtegem	3.0106022	51.0928542	NL
8840	Westrozebeke	3.012283	50.931897	NL
8840	Staden	3.014488	50.9745786	NL
8460	Westkerke	3.0154519	51.1644881	NL
8980	Passendale	3.0207328	50.9002575	NL
8420	Klemskerke	3.0229766	51.2433832	NL
8980	Beselare	3.024675	50.84788	NL
8480	Eernegem	3.0274116	51.129505	NL
8460	Roksem	3.0276368	51.1674713	NL
8460	Ettelgem	3.0302382	51.1795852	NL
8420	De Haan	3.040091	51.271947	NL
8940	Wervik	3.0441692	50.7838218	NL
8610	Kortemark	3.0444444	51.0286111	NL
8480	Bekegem	3.0453899	51.1597289	NL
8890	Moorslede	3.0632369	50.891147	NL
8421	Vlissegem	3.0638644	51.2598471	NL
8840	Oostnieuwkerke	3.0642828	50.9423778	NL
8490	Zerkegem	3.0693013	51.1665002	NL
8490	Stalhille	3.0721578	51.2140395	NL
8940	Geluwe	3.0767048	50.8099859	NL
8830	Hooglede	3.0814646	50.9785141	NL
8420	Wenduine	3.0830791	51.2976457	NL
8211	Aartrijke	3.0900794	51.1191688	NL
8890	Dadizele	3.0944555	50.8516407	NL
8490	Jabbeke	3.0948244	51.1829867	NL
8820	Torhout	3.098174	51.064451	NL
8377	Nieuwmunster	3.0986683	51.273778	NL
8830	Gits	3.0999918	50.9970116	NL
8377	Houtave	3.1104678	51.2359799	NL
8930	Menen	3.1214422	50.7961693	NL
8490	Snellegem	3.1230877	51.1690484	NL
8880	Ledegem	3.1274479	50.8549686	NL
8800	Roeselare	3.129445	50.949931	NL
8370	Blankenberge	3.1327685	51.3123743	NL
8210	Zedelgem	3.1369128	51.1423355	NL
8490	Varsenare	3.1421014	51.1891579	NL
8370	Uitkerke	3.1429	51.3033	NL
8810	Lichtervelde	3.1439095	51.0277074	NL
8800	Beveren (Roeselare)	3.1443098	50.9685498	NL
8880	Rollegem-Kapelle	3.1449509	50.8682853	NL
8377	Meetkerke	3.1514099	51.2350824	NL
8800	Rumbeke	3.1560374	50.9332448	NL
8377	Zuienkerke	3.1563889	51.265	NL
8210	Veldegem	3.1595129	51.1045154	NL
8800	Oekene	3.1609844	50.9202542	NL
8930	Rekkem	3.1641132	50.782807	NL
8560	Moorsele	3.1646335	50.8405959	NL
8200	Sint-Andries	3.1794755	51.1972024	NL
8880	Sint-Eloois-Winkel	3.1823566	50.8762769	NL
8560	Wevelgem	3.1833333	50.8166667	NL
8930	Lauwe	3.1849946	50.7946478	NL
8380	Lissewege	3.1923223	51.2941105	NL
8870	Kachtem	3.1924033	50.9318824	NL
8210	Loppem	3.1959225	51.1559088	NL
8850	Ardooie	3.1988027	50.979065	NL
8560	Gullegem	3.1989718	50.8447689	NL
8380	Zeebrugge (Brugge)	3.20137	51.330074	NL
8000	Brugge	3.2028416	51.2299337	NL
8020	Ruddervoorde	3.2065193	51.095941	NL
8200	Sint-Michiels	3.2082098	51.1858939	NL
8750	Zwevezele	3.21047	51.03609	NL
8851	Koolskamp	3.2117867	51.0019392	NL
8870	Izegem	3.214185	50.92019	NL
8791	Beveren (Leie)	3.2158445	50.830709	NL
8870	Emelgem	3.2178679	50.9271506	NL
7700	Moeskroen	3.219272	50.7459126	NL
7700	Mouscron	3.219272	50.7459126	FR
8020	Waardamme	3.2193165	51.1133317	NL
8380	Dudzele	3.2247366	51.2736603	NL
8501	Bissegem	3.2280954	50.8241103	NL
8511	Aalbeke	3.2299377	50.7784023	NL
7712	Herseaux	3.2326156	50.722568	NL
8020	Oostkamp	3.2332169	51.1545363	NL
8510	Marke (Kortrijk)	3.2335928	50.8070105	NL
7700	Luingne	3.2337149	50.738441	NL
8501	Heule	3.23472	50.8431958	NL
8860	Lendelede	3.2372222	50.8858333	NL
8301	Heist-aan-Zee	3.2400417	51.3403638	NL
8000	Koolkerke	3.248109	51.2403327	NL
8310	Sint-Kruis (Brugge)	3.2512976	51.214297	NL
8301	Ramskapelle (Knokke-Heist)	3.2516251	51.3136364	NL
8310	Assebroek	3.2550607	51.2020234	NL
7730	Estaimpuis	3.257082	50.711453	NL
8500	Kortrijk	3.2577076	50.8194894	NL
8740	Egem	3.2590301	51.0148444	NL
8770	Ingelmunster	3.26284	50.92325	NL
8510	Rollegem	3.2634359	50.7659873	NL
8740	Pittem	3.2666639	50.9942681	NL
7730	N?hin	3.2690718	50.6670101	NL
7730	Leers-Nord	3.2718413	50.6876942	NL
8020	Hertsberge	3.2730671	51.1053969	NL
8750	Wingene	3.2748	51.05865	NL
8510	Bellegem	3.2784441	50.776603	NL
7520	Templeuve	3.283159	50.6448071	NL
7730	Evregnies	3.2865695	50.7129496	NL
8760	Meulebeke	3.2869444	50.9497222	NL
8520	Kuurne	3.287	50.85397	NL
8340	Damme	3.287712	51.250818	NL
8300	Knokke	3.2893221	51.3467066	NL
8300	Knokke-Heist	3.2893221	51.3467066	NL
7522	Hertain	3.289636	50.6134736	NL
7522	Lamain	3.2922108	50.6007064	NL
8340	Oostkerke (Damme)	3.2938857	51.2785542	NL
8531	Hulste	3.2982426	50.8804452	NL
7610	Rumes	3.3022239	50.554887	NL
8300	Westkapelle	3.3028853	51.3157028	NL
7522	Blandain	3.3037827	50.6250532	NL
7502	Esplechin	3.3039872	50.5736959	NL
7711	Dottenijs	3.3048918	50.7281602	NL
7711	Dottignies	3.3048918	50.7281602	FR
7611	La Glanerie	3.305943	50.532325	NL
7730	Estaimbourg	3.3098471	50.6803312	NL
8531	Bavikhove	3.3112054	50.8754986	NL
8530	Harelbeke	3.3121073	50.8455798	NL
7730	Saint-L?er (Ht.)	3.3183539	50.7067812	NL
7730	Bailleul	3.3186808	50.6697693	NL
8340	Sijsele	3.3212461	51.2015613	NL
7522	Marquain	3.3226106	50.6042275	NL
8700	Tielt	3.3263821	51.0001519	NL
7504	Froidmont	3.3280009	50.5784046	NL
8510	Kooigem	3.3313161	50.7396942	NL
7740	Pecq	3.3314663	50.699374	NL
8700	Schuiferskapelle	3.33383	51.0328997	NL
8780	Oostrozebeke	3.3345851	50.9201615	NL
8710	Ooigem	3.3365046	50.8933706	NL
8340	Hoeke	3.336729	51.2916219	NL
7520	Ramegnies-Chin	3.3369103	50.651422	NL
8730	Oedelem	3.3397246	51.1685563	NL
8340	Moerkerke	3.340071	51.2430573	NL
7618	Taintignies	3.3403627	50.5467427	NL
8730	Beernem	3.3408333	51.1427778	NL
7740	Warcoing	3.3439836	50.7043825	NL
7503	Froyennes	3.3471214	50.6229047	NL
7501	Orcq	3.3473905	50.6028664	NL
7743	Esquelmes	3.3479165	50.6656092	NL
7506	Willemeau	3.3491191	50.573464	NL
8792	Desselgem	3.3494059	50.8868997	NL
8550	Zwevegem	3.3505258	50.8080392	NL
8540	Deerlijk	3.353722	50.85098	NL
8587	Espierres	3.35537	50.7184934	NL
8587	Spiere	3.35537	50.7184934	NL
7624	Howardries	3.3557201	50.506075	NL
8340	Lapscheure	3.3568337	51.2776457	NL
7742	H?innes-lez-Pecq	3.3633472	50.701341	NL
7743	Obigies	3.3640454	50.6619166	NL
8554	Sint-Denijs	3.3653137	50.7530651	NL
8587	Espierres-Helchin	3.3669444	50.7269444	FR
8587	Spiere-Helkijn	3.3669444	50.7269444	NL
7620	Guignies	3.3669917	50.5473025	NL
7500	Ere	3.3683528	50.5809075	NL
8730	Sint-Joris (Beernem)	3.3683708	51.1275828	NL
8710	Wielsbeke	3.3724687	50.9099543	NL
7540	Kain	3.3788194	50.6379973	NL
8587	Helchin	3.3811463	50.7321848	NL
8587	Helkijn	3.3811463	50.7321848	FR
7500	Tournai	3.3880367	50.6056059	NL
7620	Wez-Velvain	3.389033	50.5477881	NL
7621	Lesdain	3.3892118	50.5204844	NL
8710	Sint-Baafs-Vijve	3.3907682	50.9103986	NL
7623	Rongy	3.3911678	50.5084038	NL
7500	Saint-Maur	3.3945263	50.5727181	NL
8755	Ruiselede	3.3970513	51.0413098	NL
8552	Moen	3.3974267	50.7699733	NL
7620	Brunehaut	3.3978021	50.541775	NL
8720	Wakken	3.3979722	50.9306218	NL
8720	Markegem	3.4026412	50.9458591	NL
8570	Vichte	3.4030323	50.8378727	NL
8700	Kanegem	3.4033279	51.0134353	NL
7620	Jollain-Merlin	3.4039924	50.5391272	NL
7542	Mont-Saint-Aubert	3.4040353	50.6548281	NL
7760	Pottes	3.4064337	50.7311992	NL
8583	Bossuit	3.4072881	50.7481174	NL
8793	Sint-Eloois-Vijve	3.4098713	50.9034885	NL
8551	Heestert	3.410366	50.7826441	NL
9910	Knesselare	3.4127585	51.1389455	NL
7620	Bl?aries	3.4148305	50.513041	NL
9992	Middelburg	3.4150935	51.2547106	NL
8720	Dentergem	3.4186283	50.9636458	NL
7521	Chercq	3.4220483	50.589481	NL
8700	Aarsele	3.4224989	50.9969343	NL
8790	Waregem	3.4231317	50.8869521	NL
7548	Warchin	3.4233289	50.6103448	NL
8553	Otegem	3.4239803	50.8081889	NL
7620	Hollain	3.4273185	50.5443138	NL
7641	Bruyelle	3.4276343	50.5573826	NL
8582	Outrijve	3.4292885	50.7560066	NL
7760	Molenbaix	3.4299807	50.6932647	NL
8720	Oeselgem	3.4319099	50.9350995	NL
9880	Aalter	3.4323446	51.0769076	NL
7536	Vaulx (Tournai)	3.4334752	50.5903852	NL
8570	Ingooigem	3.4342331	50.8173718	NL
7642	Calonne	3.4365062	50.5780363	NL
7540	Rumillies	3.4368434	50.6199434	NL
9870	Zulte	3.4437733	50.9219214	NL
9880	Poeke	3.4440488	51.040935	NL
7543	Mourcourt	3.4442619	50.6531232	NL
9800	Wontergem	3.4445577	50.9794219	NL
7760	Escanaffles	3.445065	50.756936	NL
7622	Laplaigne	3.4469774	50.5207793	NL
9990	Maldegem	3.4486611	51.209082	NL
8580	Avelgem	3.4511795	50.7790895	NL
7640	P?onnes-lez-Antoing	3.4541886	50.5503284	NL
7760	Celles (Ht.)	3.4574913	50.7121072	NL
7640	Antoing	3.4596501	50.5503239	NL
9800	Gottem	3.461345	50.9649581	NL
7531	Havinnes	3.463517	50.6157317	NL
9800	Grammene	3.4648864	50.9771417	NL
9880	Lotenhulle	3.4655772	51.0483873	NL
9870	Olsene	3.4657328	50.9362129	NL
7643	Fontenoy	3.4736321	50.567749	NL
8573	Tiegem	3.4752664	50.8086089	NL
8570	Anzegem	3.4784725	50.8326615	NL
9800	Vinkt	3.4793989	51.0081641	NL
7750	Orroir	3.4794562	50.748643	NL
7540	Melles	3.4826517	50.6466009	NL
9690	Ruien	3.4829674	50.770725	NL
8581	Waarmaarde	3.4854501	50.7908774	NL
9910	Ursel	3.4856153	51.1294092	NL
7760	Velaines	3.4866943	50.6698088	NL
7530	Gaurain-Ramecroix (Tournai)	3.4892888	50.5938686	NL
9991	Adegem	3.4900074	51.2045152	NL
9881	Bellem	3.4906454	51.0884355	NL
9690	Kluisbergen	3.4935589	50.7784304	NL
8572	Kaster	3.4938322	50.8131679	NL
7640	Maubray	3.495748	50.5314797	NL
7538	Vezon	3.5002803	50.5719086	NL
8581	Kerkhove	3.5006455	50.7983592	NL
9800	Zeveren	3.5011056	50.9962852	NL
7532	Beclers	3.5046928	50.6209471	NL
7750	Mont-de-l'Enclus	3.5052669	50.7403202	NL
8570	Gijzelbrechtegem	3.5058127	50.8285391	NL
7750	Amougies	3.5068355	50.74428	NL
9690	Berchem (O.-Vl.)	3.5095443	50.7901621	NL
7533	Thimougies	3.5096897	50.6345381	NL
9790	Wortegem	3.5102432	50.8520887	NL
9771	Nokere	3.5105895	50.8850943	NL
7540	Quartes	3.513078	50.6493706	NL
9850	Poesele	3.5161497	51.033991	NL
7760	Popuelles	3.518789	50.6624916	NL
7750	Anseroeul	3.5212662	50.726965	NL
9800	Deinze	3.5235857	50.9875642	NL
7604	Callenelle	3.5243768	50.5313231	NL
9931	Oostwinkel	3.5252604	51.1508463	NL
9690	Kwaremont	3.5253769	50.7767287	NL
7750	Russeignies	3.530783	50.7446224	NL
7608	Wiers	3.5327736	50.5083673	NL
7910	Cordes	3.5329359	50.6884582	NL
9980	Sint-Laureins	3.5329424	51.2361689	NL
7910	Frasnes-lez-Anvaing	3.5330692	50.6986439	NL
9800	Petegem-aan-de-Leie	3.5338779	50.9800082	NL
9790	Elsegem	3.5353615	50.8245725	NL
9850	Hansbeke	3.5356476	51.0747168	NL
7604	Wasmes-Audemez-Briffoeil	3.5359058	50.5512323	NL
7910	Forest (Ht.)	3.5366398	50.6732879	NL
9770	Kruishoutem	3.5373587	50.9275809	NL
9800	Meigem	3.5404289	51.0168961	NL
7534	Barry	3.5416068	50.5848568	NL
7604	Brasmenil	3.5468718	50.541468	NL
9981	Sint-Margriete	3.5469357	51.2803944	NL
7910	Arc-Aini?es	3.5469602	50.7021983	NL
9850	Nevele	3.5478736	51.0343466	NL
7534	Maulde	3.5480139	50.6165291	NL
7910	Arc-Wattripont	3.5480229	50.728684	NL
7910	Wattripont	3.5480229	50.728684	NL
9790	Ooike (Wortegem-Petegem)	3.5510607	50.8698651	NL
9772	Wannegem-Lede	3.5515066	50.889802	NL
9932	Ronsele	3.5516605	51.1309736	NL
7604	Baugnies	3.5517755	50.5615397	NL
9790	Petegem-aan-de-Schelde	3.556078	50.8333051	NL
9850	Vosselare	3.5574385	51.0294647	NL
9800	Astene	3.5604333	50.9837892	NL
7910	Anvaing	3.5610313	50.6827667	NL
9930	Zomergem	3.5611179	51.1148946	NL
9900	Eeklo	3.561291	51.187908	NL
9790	Moregem	3.5614071	50.8504552	NL
9700	Melden	3.5642799	50.8138095	NL
7912	Dergneau	3.5689855	50.7132742	NL
9690	Zulzeke	3.5708891	50.7889651	NL
7911	Montroeul-au-Bois	3.5721235	50.6475838	NL
9850	Landegem	3.5731481	51.0567048	NL
7906	Gallaix	3.5739204	50.6053041	NL
9982	Sint-Jan-in-Eremo	3.5768505	51.2737009	NL
9850	Merendree	3.577022	51.0777421	NL
7911	Herquegies	3.5780843	50.6349791	NL
9800	Bachte-Maria-Leerne	3.5783676	51.0108541	NL
7904	Pipaix	3.5787649	50.5836922	NL
7604	Braffe	3.5820315	50.5522367	NL
7601	Roucourt	3.5871404	50.5291691	NL
9700	Bevere	3.5875451	50.8523695	NL
9800	Sint-Martens-Leerne	3.5877172	51.0154398	NL
9750	Huise	3.5896534	50.8993266	NL
9988	Waterland-Oudeman	3.5902999	51.2888925	NL
7910	Ellignies-lez-Frasnes	3.59064	50.67474	NL
7602	Bury	3.5934527	50.5424563	NL
7911	Hacquegnies	3.5935257	50.6513567	NL
9681	Nukerke	3.5947056	50.79703	NL
9810	Nazareth	3.5951408	50.9597659	NL
7912	Saint-Sauveur	3.5973713	50.7062467	NL
9750	Ouwegem	3.5992209	50.9115762	NL
7600	P?uwelz	3.6013594	50.5149368	NL
9700	Oudenaarde	3.6014367	50.8469306	NL
9700	Leupegem	3.6018007	50.8329265	NL
9700	Mullem	3.6030581	50.8912265	NL
9950	Waarschoot	3.603095	51.150958	NL
7904	Willaupuis	3.6032726	50.5666962	NL
9600	Renaix	3.6040642	50.7497709	FR
9600	Ronse	3.6040642	50.7497709	NL
9831	Deurle	3.6043494	51.0092272	NL
7901	Thieulain	3.6051759	50.6179227	NL
7603	Bon-Secours	3.6073123	50.4974738	NL
9970	Kaprijke	3.6186057	51.223075	NL
7911	Frasnes-lez-Buissenal	3.6197759	50.6699339	NL
7911	Moustier (Ht.)	3.6201695	50.6560229	NL
9700	Eine	3.620744	50.867937	NL
7900	Leuze-en-Hainaut	3.6241539	50.5971918	NL
9680	Etikhove	3.6266634	50.812527	NL
9988	Watervliet	3.6270198	51.2765175	NL
9920	Lovendegem	3.6285575	51.1075935	NL
9700	Edelare	3.6287307	50.8302334	NL
9700	Heurne	3.6287389	50.8837448	NL
9830	Sint-Martens-Latem	3.6287716	51.0135066	NL
7971	Thumaide	3.6304535	50.5403972	NL
7900	Grandmetz	3.6310729	50.6230881	NL
9700	Ename	3.6319101	50.8570277	NL
9971	Lembeke	3.6330207	51.1945809	NL
7971	Ramegnies	3.634732	50.544033	NL
9700	Nederename	3.6348815	50.8667191	NL
9810	Eke	3.6374551	50.9580565	NL
9921	Vinderhoute	3.6407214	51.0869089	NL
9700	Volkegem	3.6427814	50.8393802	NL
9680	Maarkedal	3.6442007	50.7992486	NL
7320	Bernissart	3.6459245	50.4824696	NL
7971	Bas?les	3.6488934	50.5259119	NL
9031	Drongen	3.6500631	51.0509087	NL
9840	De Pinte	3.650462	50.991095	NL
9890	Asper	3.6510321	50.9160245	NL
7903	Chapelle-·Wattines	3.6525272	50.6121186	NL
9750	Zingem	3.6526704	50.9013629	NL
7971	Wadelincourt	3.6533891	50.5376959	NL
9680	Maarke-Kerkem	3.6541835	50.815968	NL
7904	Tourpes	3.6548155	50.5710803	NL
9700	Welden	3.6555399	50.8784011	NL
7911	Buissenal	3.6557135	50.6642045	NL
7321	Blaton	3.6598433	50.4992803	NL
9890	Gavere	3.663113	50.92634	NL
9700	Mater	3.6635537	50.8424603	NL
9890	Semmerzake	3.6647202	50.9430929	NL
9051	Afsnee	3.6661568	51.0305603	NL
9051	Sint-Denijs-Westrem	3.6695793	51.0200854	NL
7903	Chapelle-·Oie	3.6706651	50.5966376	NL
7387	Marchipont	3.67255	50.37506	NL
7972	Ellignies-Sainte-Anne	3.67696	50.5627762	NL
9688	Schorisse	3.6769838	50.8044682	NL
9968	Bassevelde	3.6777432	51.2300624	NL
7890	Ellezelles	3.6784533	50.7340811	NL
9940	Sleidinge	3.6789117	51.1319702	NL
7812	Houtaing	3.679122	50.6405033	NL
7972	Quevaucamps	3.6801487	50.5186636	NL
9030	Mariakerke (Gent)	3.680642	51.0736204	NL
7972	Aubechies	3.6814062	50.5724436	NL
9890	Vurste	3.6843031	50.9490931	NL
7350	Hensies	3.684904	50.4327789	NL
9636	Nederzwalm-Hermelgem	3.6863847	50.8875058	NL
9667	Horebeke	3.68672	50.8372	NL
9890	Dikkelvenne	3.6874247	50.9190023	NL
9968	Oosteeklo	3.6883778	51.1920171	NL
7380	Qui?rain	3.6904002	50.4034322	NL
7387	Angreau	3.69081	50.35064	NL
9667	Sint-Maria-Horebeke	3.691596	50.84049	NL
7903	Blicquy	3.6916495	50.5871723	NL
7387	Roisin	3.69353	50.33307	NL
9820	Melsen	3.6940645	50.9563191	NL
7973	Grandglise	3.6942392	50.505325	NL
7387	Honnelles	3.6942525	50.366628	NL
7321	Harchies	3.6946534	50.4803048	NL
9840	Zevergem	3.6961517	50.9791445	NL
7380	Baisieux	3.697523	50.390588	NL
7387	Angre	3.69813	50.36839	NL
9667	Sint-Kornelis-Horebeke	3.6983276	50.834426	NL
9630	Meilegem	3.6989579	50.9049599	NL
7350	Montroeul-sur-Haine	3.7039398	50.4355247	NL
7812	Ligne	3.7046301	50.6215858	NL
9940	Evergem	3.7067231	51.1101028	NL
9630	Sint-Maria-Latem	3.7068644	50.890211	NL
7911	Oeudeghien	3.7088142	50.6793101	NL
9052	Zwijnaarde	3.7106183	50.9998062	NL
9630	Sint-Denijs-Boekel	3.711336	50.8649078	NL
7322	Pommeroeul	3.7129612	50.4623107	NL
9820	Schelderode	3.7155352	50.9713789	NL
9630	Paulatem	3.7156505	50.8962994	NL
7812	Moulbaix	3.7157035	50.6015858	NL
9032	Wondelgem	3.7160657	51.0905009	NL
7387	Onnezies	3.71647	50.36319	NL
9630	Beerlegem	3.7167363	50.9058963	NL
7812	Mainvault	3.7168499	50.6490683	NL
7973	Stambruges	3.7172081	50.5085894	NL
7382	Audregnies	3.7175716	50.3830616	NL
9660	Zegelsem	3.7181357	50.8188341	NL
9961	Boekhoute	3.7181501	51.2581738	NL
9630	Sint-Blasius-Boekel	3.719383	50.8516744	NL
9890	Baaigem	3.7219346	50.9296017	NL
7890	Lahamaide	3.724979	50.6949026	NL
7970	Beloeil	3.7256357	50.5317621	NL
9630	Zwalm	3.7288705	50.8799184	NL
7812	Villers-Saint-Amand	3.7289144	50.6227748	NL
9000	Gent	3.7290914	51.0678307	NL
7322	Ville-Pommeroeul	3.7293137	50.4708319	NL
9940	Kluizen	3.7303321	51.1557298	NL
9630	Munkzwalm	3.7330622	50.8778017	NL
7387	Autreppe	3.73442	50.34914	NL
7387	Montignies-sur-Roc	3.73608	50.36841	NL
7812	Villers-Notre-Dame	3.7361557	50.6168631	NL
7880	Flobecq	3.73852	50.7367	FR
7880	Vloesberg	3.73852	50.7367	NL
9660	Elst	3.7386165	50.8312919	NL
7350	Thulin	3.7391863	50.4290487	NL
9050	Ledeberg (Gent)	3.7412237	51.0371743	NL
9630	Dikkele	3.7421149	50.9041388	NL
9820	Merelbeke	3.743923	50.9925349	NL
9820	Munte	3.7441552	50.9450049	NL
9940	Ertvelde	3.7466865	51.1787632	NL
7890	Wodecq	3.7467894	50.7184846	NL
9630	Hundelgem	3.7483584	50.8895095	NL
9040	Sint-Amandsberg (Gent)	3.7509905	51.0593304	NL
9960	Assenede	3.7510157	51.2269806	NL
7802	Ormeignies	3.7510985	50.5946299	NL
9630	Roborst	3.7517319	50.8655452	NL
9660	Nederbrakel	3.7521934	50.8030762	NL
7370	Elouges	3.7522644	50.4025947	NL
7370	Wih?ies	3.7525313	50.385473	NL
9630	Rozebeke	3.7527652	50.8496528	NL
9820	Bottelare	3.7537909	50.9631988	NL
7950	Huissignies	3.7541	50.56482	NL
7950	Grosage	3.75643	50.54469	NL
9660	Opbrakel	3.7569851	50.7970364	NL
7801	Irchonwelz	3.7590505	50.6179756	NL
7804	Ostiches	3.7590705	50.678456	NL
9660	Michelbeke	3.7629436	50.8334231	NL
9660	Brakel	3.76382	50.80276	NL
9050	Gentbrugge	3.7640148	51.0342951	NL
9041	Oostakker	3.7642304	51.099713	NL
7350	Hainin	3.7656597	50.4306618	NL
7334	Hautrage	3.7659709	50.4792056	NL
7803	Bouvignies	3.7664662	50.6467287	NL
7950	Ladeuze	3.76861	50.56447	NL
7387	Fayt-le-Franc	3.77132	50.3581	NL
9820	Lemberge	3.7729677	50.9781227	NL
7951	Tongre-Notre-Dame	3.7755504	50.5814329	NL
7387	Athis	3.77806	50.36563	NL
9860	Moortsele	3.779462	50.9590134	NL
7862	Ogy	3.7806795	50.7207024	NL
9620	Velzeke-Ruddershove	3.7808616	50.8856442	NL
9042	Desteldonk	3.7825691	51.1220868	NL
7370	Dour	3.7827922	50.4000125	NL
7804	Rebaix	3.7835209	50.6604453	NL
9860	Scheldewindeke	3.7855184	50.9383982	NL
9620	Sint-Goriks-Oudenhove	3.7860345	50.853376	NL
9620	Strijpen	3.7876333	50.8680225	NL
7800	Ath	3.7882733	50.6335009	NL
7950	Tongre-Saint-Martin	3.78884	50.58693	NL
7332	Sirault	3.7899285	50.5041746	NL
7334	Villerot	3.7905933	50.4865886	NL
9860	Landskouter	3.7928735	50.9683883	NL
7387	Erquennes	3.79349	50.35941	NL
9860	Balegem	3.7934984	50.9204927	NL
7332	Neufmaison	3.7936731	50.5293542	NL
9620	Sint-Maria-Oudenhove (Zottegem)	3.7961149	50.8332892	NL
7300	Boussu	3.7969506	50.425877	NL
9090	Gontrode	3.7972911	50.9834948	NL
9661	Parike	3.7979447	50.7848195	NL
7861	Wannebecq	3.7997435	50.6944009	NL
9070	Destelbergen	3.800096	51.054075	NL
9090	Melle	3.8003144	51.0036716	NL
9070	Heusden (O.-Vl.)	3.80398	51.02735	NL
7810	Maffle	3.8057979	50.6169973	NL
7370	Blaugies	3.8058371	50.372016	NL
7800	Lanquesaint	3.8065319	50.6532856	NL
7950	Chi?res	3.806936	50.583986	NL
9660	Everbeek	3.8082788	50.7629802	NL
9620	Elene	3.8102911	50.890414	NL
7863	Ghoy	3.8103491	50.7298753	NL
9620	Zottegem	3.8107094	50.8695474	NL
7333	Tertre	3.8118542	50.4668162	NL
9060	Zelzate	3.8124066	51.1982678	NL
9860	Gijzenzele	3.8154698	50.9705888	NL
9860	Oosterzele	3.815505	50.9467656	NL
9042	Sint-Kruis-Winkel	3.8158001	51.1558401	NL
7811	Arbre (Ht.)	3.8165211	50.6124045	NL
7861	Papignies	3.8165855	50.6863766	NL
7822	Isi?es	3.8176928	50.665394	NL
7330	Saint-Ghislain	3.8183635	50.4490864	NL
9620	Erwetegem	3.8187486	50.8534264	NL
9042	Mendonk	3.8193015	51.1447934	NL
7340	Warquignies	3.8216781	50.4010549	NL
9572	Sint-Martens-Lierde	3.8227044	50.8046682	NL
7301	Hornu	3.82627	50.43634	NL
9500	Zarlardinge	3.8286395	50.7621167	NL
9620	Godveerdegem	3.8299361	50.862263	NL
9620	Leeuwergem	3.8302773	50.8881102	NL
9620	Grotenberge	3.8334131	50.8730328	NL
7860	Lessines	3.8348594	50.7047124	NL
9620	Oombergen (Zottegem)	3.8370058	50.8990217	NL
7331	Baudour	3.8377399	50.4832756	NL
9080	Lochristi	3.8378336	51.0974848	NL
9570	Lierde	3.8381658	50.8190695	NL
7340	P?urages	3.8383261	50.4048263	NL
7941	Attre	3.8384917	50.6067064	NL
9570	Sint-Maria-Lierde	3.8390631	50.8183551	NL
9570	Deftinge	3.8396638	50.7873351	NL
9500	Goeferdinge	3.8414944	50.7673697	NL
7340	Wasmes	3.8449946	50.4219636	NL
7390	Wasmuel	3.8453838	50.4456324	NL
7822	Meslin-l'Ev?ue	3.8474277	50.649351	NL
7340	Colfontaine	3.85	50.4	NL
7942	M?ergnies-lez-Lens	3.8525209	50.60734	NL
7870	Bauffe	3.8531354	50.56992	NL
9270	Laarne	3.8535642	51.0304277	NL
7864	Deux-Acren	3.8540312	50.7289132	NL
9550	Hillegem	3.8541872	50.8955518	NL
9520	Sint-Lievens-Houtem	3.8544167	50.9206626	NL
7940	Brugelette	3.8545291	50.5991751	NL
9571	Hemelveerdegem	3.8569442	50.8069634	NL
7050	Herchies	3.8576244	50.5275483	NL
7866	Ollignies	3.8591532	50.6846628	NL
9185	Wachtebeke	3.86055	51.17095	NL
9230	Westrem	3.8613947	50.969757	NL
9080	Zaffelare	3.8618077	51.1324891	NL
9500	Nederboelare	3.8630757	50.7707473	NL
9500	Overboelare	3.8630955	50.7622737	NL
7390	Quaregnon	3.8645777	50.4443909	NL
9520	Bavegem	3.8657862	50.9442706	NL
9500	Geraardsbergen	3.8723864	50.7704243	NL
9230	Massemen	3.8734909	50.9808891	NL
7080	La Bouverie	3.8747222	50.4055556	NL
9550	Steenhuize-Wijnhuize	3.8757417	50.8457249	NL
7080	Sars-la-Bruy?e	3.87611	50.37247	NL
7822	Ghislenghien	3.8774062	50.6565066	NL
7940	Cambron-Casteau	3.8801355	50.5890218	NL
9080	Beervelde	3.8805757	51.0800983	NL
9521	Letterhoutem	3.8820403	50.9263891	NL
7050	Erbaut	3.8841662	50.5329492	NL
9550	Sint-Lievens-Esse	3.8855951	50.8570756	NL
7080	Eugies (Frameries)	3.88777	50.39021	NL
7823	Gibecq	3.887925	50.6383168	NL
7866	Bois-de-Lessines	3.8881698	50.6968993	NL
7830	Hellebecq	3.8882654	50.6633699	NL
7012	Fl?u	3.8889901	50.4336915	NL
9230	Wetteren	3.8896461	51.0028673	NL
7943	Gages	3.8905197	50.606841	NL
9500	Ophasselt	3.8913282	50.8211821	NL
9552	Borsbeke	3.8932	50.9048954	NL
9506	Schendelbeke	3.8948669	50.7957523	NL
9520	Vlierzele	3.8956082	50.9312501	NL
7050	Erbisoeul	3.8966431	50.5161101	NL
7040	Blaregnies	3.89704	50.35715	NL
9550	Herzele	3.8986569	50.8535314	NL
9080	Zeveneken	3.8988663	51.1074665	NL
7012	Jemappes	3.8990501	50.4479352	NL
7080	Frameries	3.9	50.4	NL
7870	Lens	3.9005816	50.5566517	NL
7040	Aulnois	3.902	50.34048	NL
7011	Ghlin	3.9020509	50.4742291	NL
9340	Oordegem	3.9028634	50.9565245	NL
9520	Zonnegem	3.9087653	50.9262262	NL
9551	Ressegem	3.9096039	50.8920412	NL
7050	Jurbise	3.9107946	50.5328889	NL
7830	Gondregnies	3.911932	50.6272859	NL
9550	Woubrechtegem	3.9158202	50.8729342	NL
9500	Onkerzele	3.9164649	50.7854778	NL
7040	Genly	3.9167	50.39338	NL
7870	Cambron-Saint-Vincent	3.9170981	50.5819027	NL
9500	Moerbeke	3.9179326	50.752437	NL
9270	Kalken	3.9183591	51.0383253	NL
9420	Burst	3.9202801	50.9134028	NL
9506	Smeerebbe-Vloerzegem	3.9210352	50.815712	NL
9260	Serskamp	3.9221247	50.99082	NL
9500	Viane	3.9227668	50.7435153	NL
7033	Cuesmes	3.9240678	50.4362266	NL
7830	Silly	3.924992	50.647385	NL
9550	Sint-Antelinks	3.9253359	50.850217	NL
9506	Idegem	3.9267805	50.7999931	NL
7040	Qu?y	3.9274387	50.3543123	NL
9340	Smetlede	3.9277109	50.9660082	NL
7830	Fouleng	3.927783	50.6182079	NL
9420	Bambrugge	3.9287832	50.9218777	NL
9260	Schellebelle	3.9288305	51.0115409	NL
9420	Vlekkem	3.931606	50.936432	NL
7080	Noirchain	3.93218	50.40176	NL
7040	Qu?y-le-Petit	3.93351	50.36854	NL
7830	Bassilly	3.9336848	50.6767826	NL
9420	Aaigem	3.9372245	50.889158	NL
7040	Bougnies	3.93863	50.38694	NL
7870	Lombise	3.9392615	50.5996637	NL
1547	Bever	3.940144	50.718269	NL
1547	Bievene	3.940144	50.718269	FR
9180	Moerbeke-Waas	3.94401	51.173409	NL
7870	Montignies-lez-Lens	3.9441093	50.5642943	NL
9506	Grimminge	3.9441263	50.7938805	NL
9420	Ottergem	3.9446055	50.9338291	NL
9400	Voorde	3.9448617	50.8246285	NL
7050	Masnuy-Saint-Jean (Jurbise)	3.9451238	50.5310497	NL
9506	Zandbergen	3.9461797	50.7946427	NL
7024	Ciply	3.9462109	50.4219839	NL
9290	Overmere	3.9466434	51.0465707	NL
7040	Goegnies-Chauss?	3.94686	50.34235	NL
7040	Qu?y-le-Grand	3.94721	50.36065	NL
9340	Impe	3.9498849	50.9604418	NL
9290	Uitbergen	3.9541747	51.022548	NL
7040	Asquillies	3.95447	50.40066	NL
7830	Thoricourt	3.9550981	50.6113357	NL
7020	Nimy	3.9552523	50.4765848	NL
9420	Erondegem	3.9554259	50.9408215	NL
9340	Wanzele	3.9558401	50.9741071	NL
7000	Mons	3.9566904	50.4542165	NL
9404	Aspelare	3.957471	50.8433311	NL
7022	Mesvin	3.9582718	50.4259641	NL
9160	Eksaarde	3.9586263	51.1471563	NL
9450	Heldergem	3.960628	50.8749786	NL
7022	Hyon	3.9607279	50.4395855	NL
7050	Masnuy-Saint-Pierre	3.960863	50.5364971	NL
7020	Maisi?es	3.965319	50.4885712	NL
9400	Appelterre-Eichem	3.9669736	50.8187951	NL
7022	Nouvelles	3.9671418	50.4104361	NL
9420	Mere	3.968053	50.9224188	NL
9506	Waarbeke	3.9687964	50.7782217	NL
9420	Erpe-Mere	3.9702778	50.9280556	NL
1570	Galmaarden	3.9709758	50.7529396	NL
9260	Wichelen	3.9735809	51.0048213	NL
9400	Nederhasselt	3.9751089	50.8468981	NL
9420	Erpe	3.9768861	50.9338285	NL
9340	Lede	3.9773269	50.9658713	NL
7010	S.H.A.P.E. Belgi·3.9823343	50.5051355	NL	
7010	S.H.A.P.E. Belgique	3.9823343	50.5051355	FR
7041	Havay	3.98337	50.36155	NL
8600	Driekapellen	3.9862194	50.7063183	NL
9506	Nieuwenhove	3.9866164	50.7875782	NL
7022	Harveng	3.987102	50.3946189	NL
9160	Daknam	3.987354	51.1278368	NL
7032	Spiennes	3.989321	50.4251859	NL
1541	Sint-Pieters-Kapelle (Bt.)	3.9899741	50.7070524	NL
9451	Kerksken	3.9920928	50.8902903	NL
9160	Lokeren	3.9940663	51.1023413	NL
7830	Graty	3.9960425	50.6319712	NL
7063	Chauss?-Notre-Dame-Louvignies	3.9983062	50.5927405	NL
9406	Outer	3.9993364	50.8416281	NL
7063	Neufvilles	4.0026575	50.5685485	NL
9320	Nieuwerkerken (Aalst)	4.0046831	50.9234243	NL
9450	Haaltert	4.0056515	50.90244	NL
9290	Berlare	4.0058218	51.0174273	NL
1570	Tollembeek	4.006775	50.7410978	NL
9401	Pollare	4.0068855	50.8172312	NL
7034	Obourg	4.0091225	50.4742413	NL
7030	Saint-Symphorien	4.0118304	50.4378687	NL
7061	Casteau (Soignies)	4.0133385	50.5159354	NL
9200	Schoonaarde	4.0151259	51.0035338	NL
7850	Marcq	4.0154	50.6914447	FR
7850	Mark	4.0154	50.6914447	NL
7022	Harmignies	4.0174614	50.4060459	NL
9450	Denderhoutem	4.0184815	50.8709652	NL
9400	Ninove	4.018803	50.8336435	NL
7034	Saint-Denis (Ht.)	4.0192594	50.4910335	NL
9308	Hofstade (O.-Vl.)	4.02168	50.96915	NL
9400	Denderwindeke	4.0247359	50.7980879	NL
1570	Vollezele	4.0252744	50.7607201	NL
7830	Hoves (Ht.)	4.0356997	50.6707875	NL
7041	Givry	4.03584	50.37943	NL
9190	Stekene	4.04	51.2061111	NL
9240	Zele	4.0403498	51.0700765	NL
9402	Meerbeke	4.0407347	50.8238384	NL
9300	Aalst	4.0409133	50.937793	NL
7031	Villers-Saint-Ghislain	4.0409306	50.4320932	NL
7850	Edingen	4.0418582	50.6947421	NL
7850	Enghien	4.0418874	50.6947227	NL
7060	Horrues	4.0427256	50.6085349	NL
9112	Sinaai-Waas	4.0444238	51.1563307	NL
7021	Havr·4.0453246	50.4639119	NL	
7061	Thieusies	4.0482964	50.5151741	NL
9472	Iddergem	4.0487529	50.8745041	NL
9308	Gijzegem	4.051058	50.9837657	NL
9400	Lieferinge	4.0525752	50.7919279	NL
1540	Herne	4.0536565	50.7233164	NL
9200	Appels	4.0541409	51.0293011	NL
9400	Okegem	4.0555127	50.8554922	NL
9473	Welle	4.055587	50.8990369	NL
7060	Soignies	4.0573135	50.5777389	NL
7120	Vellereille-le-Sec	4.05847	50.40195	NL
7070	Gottignies	4.06031	50.49657	NL
9320	Erembodegem (Aalst)	4.060892	50.9206095	NL
9200	Oudegem	4.0612485	51.0091316	NL
9403	Neigem	4.0618153	50.8033904	NL
7120	Rouveroy (Ht.)	4.06213	50.35544	NL
1755	Oetingen	4.06312	50.77347	NL
9310	Herdersem	4.0659206	50.9700983	NL
7070	Ville-sur-Haine (Le Roeulx)	4.06913	50.47529	NL
9200	Mespelare	4.0691846	50.9960845	NL
7090	Steenkerque (Ht.)	4.06922	50.64325	NL
9470	Denderleeuw	4.0707683	50.884149	NL
1760	Pamel	4.07101	50.84495	NL
6560	Grand-Reng	4.07478	50.33062	NL
9190	Kemzeke	4.0756996	51.2062441	NL
7120	Croix-lez-Rouveroy	4.07692	50.36152	NL
7110	Boussoit	4.07783	50.46022	NL
7120	Haulchin	4.08188	50.3843	NL
7850	Lettelingen	4.0829937	50.6913651	NL
7850	Petit-Enghien	4.0829937	50.6913651	NL
7120	Peissant	4.0833333	50.3833333	NL
7120	Estinnes	4.0833333	50.3833333	NL
9170	De Klinge	4.0833333	51.25	NL
9280	Wieze	4.0836695	50.9786176	NL
9250	Waasmunster	4.0844444	51.1097222	NL
9111	Belsele (Sint-Niklaas)	4.0861828	51.1428369	NL
1770	Liedekerke	4.08729	50.86891	NL
1760	Roosdaal	4.0879776	50.8314294	NL
7090	Petit-Roeulx-lez-Braine	4.0886	50.62539	NL
9280	Denderbelle	4.0907494	51.0009562	NL
7070	Thieu	4.09152	50.47363	NL
7120	Estinnes-au-Mont	4.09623	50.39652	NL
9170	Sint-Pauwels	4.0977458	51.193303	NL
9310	Moorsel	4.0983842	50.9478217	NL
1790	Teralfene	4.0987022	50.8922688	NL
7062	Naast	4.0991332	50.5543555	NL
7110	Maurage	4.09927	50.4567	NL
1540	Herfelingen	4.0998655	50.7477711	NL
9200	Dendermonde	4.1019931	51.0254867	NL
7120	Estinnes-au-Val	4.10407	50.41115	NL
7130	Bray	4.10543	50.43164	NL
9200	Grembergen	4.1056631	51.0550925	NL
7070	Le Roeulx	4.105882	50.501765	NL
1790	Hekelgem	4.1084956	50.9072267	NL
1760	Onze-Lieve-Vrouw-Lombeek	4.1101502	50.8197588	NL
7120	Fauroeulx	4.1104	50.37022	NL
6560	Erquelinnes	4.1113839	50.3073558	NL
1670	Heikruis	4.11211	50.73504	NL
9200	Sint-Gillis-bij-Dendermonde	4.1126682	51.0174597	NL
1790	Affligem	4.11281	50.9084	NL
9280	Lebbeke	4.1166667	51	NL
1760	Strijtem	4.1173658	50.8412507	NL
1755	Gooik	4.1180489	50.7952811	NL
7130	Binche	4.1185307	50.4278907	NL
1755	Kester	4.11935	50.76428	NL
1755	Leerbeek	4.11943	50.77787	NL
1430	Bierghes	4.1195104	50.6956998	NL
7110	Str?y-Bracquegnies	4.12	50.48055	NL
9170	Sint-Gillis-Waas	4.127268	51.219951	NL
1430	Rebecq	4.132162	50.665625	NL
1430	Rebecq-Rognon	4.1326563	50.6659293	NL
7134	P?onnes-lez-Binche	4.1333333	50.4333333	NL
9310	Meldert (O.-Vl.)	4.1354329	50.934325	NL
9220	Hamme (O.-Vl.)	4.13593	51.10042	NL
1670	Pepingen	4.1360863	50.7360287	NL
1670	Bogaarden	4.13632	50.74	NL
1790	Essene	4.1364265	50.9015743	NL
1761	Borchtlombeek	4.139768	50.8475374	NL
7090	Braine-le-Comte	4.141006	50.608334	NL
9310	Baardegem	4.141577	50.9549555	NL
9140	Elversele	4.1433446	51.1145439	NL
7110	Houdeng-Aimeries	4.1446	50.48578	NL
9170	Meerdonk	4.145993	51.2607213	NL
6560	Bersillies-l'Abbaye	4.14788	50.26108	NL
7100	Trivi?es	4.14802	50.45041	NL
7131	Waudrez	4.14948	50.41332	NL
7120	Vellereille-les-Brayeux	4.15195	50.3793	NL
7070	Mignault	4.15313	50.528	NL
7190	Ecaussinnes-d'Enghien	4.1538788	50.5608812	NL
1674	Bellingen	4.15399	50.7408	NL
6560	Solre-sur-Sambre	4.15428	50.30781	NL
7110	Houdeng-Goegnies (La Louvi?e)	4.15428	50.48815	NL
9100	Sint-Niklaas	4.1544255	51.1559033	NL
1750	Sint-Kwintens-Lennik	4.15481	50.80422	NL
9220	Moerzeke	4.1557302	51.0666518	NL
1742	Sint-Katherina-Lombeek	4.1559883	50.8732586	NL
6594	Beauwelz	4.15651	50.01401	NL
1430	Quenast	4.157332	50.6729162	NL
9200	Baasrode	4.1577249	51.0378102	NL
1480	Saintes	4.15817	50.70615	NL
7100	Saint-Vaast	4.16036	50.45431	NL
1741	Wambeek	4.1628356	50.8532484	NL
6567	Merbes-le-Ch?eau	4.1645212	50.3244185	NL
6470	Sivry-Rance	4.1666667	50.1666667	NL
1750	Sint-Martens-Lennik	4.16778	50.8122	NL
1750	Lennik	4.16778	50.8122	FR
7130	Battignies	4.16889	50.41691	NL
7090	Hennuy?es	4.1696	50.63843	NL
6567	Merbes-Sainte-Marie	4.1708963	50.3557862	NL
1745	Mazenzele	4.1711583	50.942789	NL
1671	Elingen	4.17119	50.77926	NL
6470	Grandrieu	4.1720392	50.2007845	NL
7190	Ecaussinnes	4.1724	50.5606	NL
9130	Kallo (Kieldrecht)	4.17398	51.2915	NL
9130	Kieldrecht (Beveren)	4.1755238	51.2894202	NL
6560	Hantes-Wih?ies	4.17712	50.30642	NL
9100	Nieuwkerken-Waas	4.1775401	51.1935108	NL
7191	Ecaussinnes-Lalaing	4.1775465	50.5700581	NL
6593	Macquenoise	4.17862	49.97559	NL
6590	Momignies	4.1789941	50.031015	NL
1740	Ternat	4.1808317	50.8698353	NL
1673	Beert	4.18184	50.74103	NL
7190	Marche-lez-Ecaussinnes	4.1819002	50.5469243	NL
6470	Sivry	4.182086	50.1660176	NL
1745	Opwijk	4.1833333	50.9666667	NL
7090	Henripont	4.1854	50.59933	NL
6567	Labuissi?e	4.1854165	50.315854	NL
9130	Verrebroek	4.1888455	51.2555891	NL
1750	Gaasbeek	4.18893	50.79987	NL
7100	La Louvi?e	4.1892216	50.469385	NL
2880	Weert	4.190123	51.1034075	NL
7100	Haine-Saint-Paul	4.19126	50.45313	NL
2880	Mariekerke (Bornem)	4.1923418	51.0634883	NL
6560	Montignies-Saint-Christophe	4.1934	50.28146	NL
9120	Vrasene	4.1944794	51.2193961	NL
7134	Ressaix	4.19475	50.42188	NL
1703	Schepdaal	4.1958272	50.8383485	NL
6500	Leugnies	4.19721	50.21925	NL
1600	Oudenaken	4.19938	50.78068	NL
1600	Sint-Laureins-Berchem	4.19938	50.78681	NL
7100	Haine-Saint-Pierre	4.1996	50.45413	NL
1480	Tubize	4.2026	50.69054	NL
9255	Buggenhout	4.204424	51.014359	NL
1730	Asse	4.2048959	50.9054755	NL
7133	Buvrinnes	4.20524	50.38873	NL
1460	Virginal-Samme	4.20587	50.63983	NL
7134	Epinois	4.20728	50.40558	NL
6591	Macon	4.20912	50.05062	NL
2890	Sint-Amands	4.20946	51.05595	NL
6500	Leval-Chaudeville	4.20949	50.23554	NL
6542	Sars-la-Buissi?e	4.2098006	50.3397381	NL
9140	Temse	4.210125	51.12879	NL
7181	Familleureux	4.2110894	50.522862	NL
1700	Sint-Martens-Bodegem	4.2128916	50.8614672	NL
6567	Fontaine-Valmont	4.2155052	50.3180022	NL
6543	Bienne-lez-Happart	4.216185	50.3521841	NL
7134	Leval-Trahegnies	4.21766	50.41653	NL
1700	Sint-Ulriks-Kapelle	4.2182047	50.8790042	NL
9255	Opdorp	4.21918	51.02806	NL
1480	Oisquercq	4.21985	50.66989	NL
1502	Lembeek	4.2200436	50.7140616	NL
7090	Ronqui?es	4.22094	50.6079	NL
7170	Bois-d'Haine	4.22108	50.50407	NL
1480	Clabecq	4.22163	50.69212	NL
9140	Tielrode	4.2217467	51.1295276	NL
6470	Montbliart	4.2240647	50.1344705	NL
6470	Sautin	4.2257553	50.1636283	NL
1730	Mollem	4.22636	50.9313	NL
7170	Fayt-lez-Manage	4.22764	50.48706	NL
6592	Monceau-Imbrechies	4.22773	50.03796	NL
7140	Morlanwelz	4.2297719	50.4523812	NL
7170	La Hestre	4.2299939	50.475919	NL
1602	Vlezenbeek	4.23213	50.80785	NL
1785	Merchtem	4.2333333	50.95	NL
7141	Mont-Sainte-Aldegonde	4.23345	50.43056	NL
1500	Halle	4.2349129	50.7324848	NL
6500	Thirimont	4.23585	50.25915	NL
6540	Mont-Sainte-Genevi?e	4.2365499	50.3722603	NL
7170	Manage	4.237712	50.499402	NL
9120	Haasdonk	4.2378789	51.1810333	NL
1730	Bekkerzeel	4.23803	50.88523	NL
6460	Baili?re	4.23844	50.06919	NL
2880	Bornem	4.2404586	51.0996057	NL
2890	Oppuurs	4.24199	51.06607	NL
1600	Sint-Pieters-Leeuw	4.242743	50.7842441	NL
6460	Salles	4.24463	50.05544	NL
6530	Leers-et-Fosteau	4.2457958	50.3044451	NL
1840	Malderen	4.24629	51.02033	NL
6500	Solre-Saint-G?y	4.24894	50.21623	NL
6500	Beaumont	4.2497858	50.2190423	NL
1702	Groot-Bijgaarden	4.2500012	50.8719066	NL
1701	Itterbeek	4.2500689	50.8381387	NL
7181	Feluy	4.250265	50.562207	NL
1730	Kobbegem	4.25104	50.90862	NL
6596	Forge-Philippe	4.25299	49.96687	NL
9120	Beveren-Waas	4.253543	51.21413	NL
7170	Bellecourt	4.25438	50.48307	NL
7141	Carni?es	4.2549	50.44139	NL
6596	Seloignes	4.25613	50.01525	NL
2890	Lippelo	4.2586	51.04215	NL
6533	Bierc?	4.2594865	50.3245498	NL
6460	Villers-la-Tour	4.26131	50.03601	NL
1700	Dilbeek	4.2620632	50.8464512	NL
1460	Ittre	4.2632352	50.6326887	NL
1501	Buizingen	4.263916	50.7392326	NL
9130	Doel	4.2649749	51.3105976	NL
6460	Chimay	4.2660214	50.0844529	NL
1785	Brussegem	4.26608	50.92574	NL
6540	Lobbes	4.2662585	50.3682434	NL
6500	Renlies	4.26651	50.19108	NL
1840	Steenhuffel	4.26716	50.99577	NL
2880	Hingene	4.2687874	51.1032985	NL
1440	Braine-le-Ch?eau	4.2689347	50.6802986	NL
6470	Rance	4.26913	50.14337	NL
9140	Steendorp	4.2706342	51.1258102	NL
6150	Anderlues	4.2711111	50.4066667	NL
7180	Seneffe	4.2721491	50.5285674	NL
1654	Huizingen	4.27369	50.74657	NL
1731	Zellik	4.27401	50.88449	NL
7181	Arquennes	4.2748602	50.5678375	NL
1404	Bornival	4.27629	50.60184	NL
1731	Relegem	4.27702	50.89908	NL
1651	Lot	4.27707	50.76778	NL
6460	Robechies	4.27725	50.07275	NL
9120	Kallo (Beveren-Waas)	4.2786812	51.2526476	NL
2870	Liezele	4.28023	51.06082	NL
2040	Lillo	4.28026	51.30436	NL
1785	Hamme (Bt.)	4.28061	50.92042	NL
9120	Melsele	4.2822314	51.2224882	NL
7160	Chapelle-lez-Herlaimont	4.2833333	50.4666667	NL
6500	Barben?n	4.28346	50.22307	NL
6532	Ragnies	4.2841508	50.3085551	NL
7160	Godarville	4.28842	50.49626	NL
1400	Monstreux	4.28884	50.59803	NL
2870	Puurs	4.28925	51.075	NL
9150	Rupelmonde	4.2903448	51.1274074	NL
6460	Saint-Remy (Ht.)	4.29193	50.04538	NL
6530	Thuin	4.2928918	50.3414098	NL
6511	Str? (Ht.)	4.29443	50.28045	NL
1082	Berchem-Sainte-Agathe	4.295748	50.865341	FR
1082	Sint-Agatha-Berchem	4.295748	50.865341	NL
7160	Pi?on	4.29622	50.43749	NL
2040	Antwerpen	4.2964605	51.3418306	NL
1440	Wauthier-Braine	4.29806	50.68121	NL
1461	Haut-Ittre	4.29825	50.65357	NL
9150	Bazel	4.2983585	51.147512	NL
1601	Ruisbroek (Bt.)	4.29862	50.79035	NL
1653	Dworp	4.30109	50.72949	NL
1083	Ganshoren	4.30253	50.87113	NL
1840	Londerzeel	4.3026	51.00311	NL
6440	Vergnies	4.3047818	50.1988476	NL
1780	Wemmel	4.306408	50.906141	NL
2040	Zandvliet	4.30716	51.35965	NL
1070	Anderlecht	4.308187	50.8365808	NL
6531	Biesme-sous-Thuin	4.3087831	50.3220429	NL
1861	Wolvertem	4.30927	50.95088	NL
7181	Petit-Roeulx-lez-Nivelles	4.3107658	50.5548179	NL
6440	Fourbechies	4.3107812	50.1636881	NL
6536	Donstiennes	4.3113889	50.2855556	NL
1650	Beersel	4.3120069	50.7686913	NL
9150	Kruibeke	4.3123069	51.1706378	NL
2040	Berendrecht	4.31409	51.34287	NL
1620	Drogenbos	4.3166667	50.7833333	NL
1080	Molenbeek-Saint-Jean	4.3166667	50.85	FR
1080	Sint-Jans-Molenbeek	4.3166667	50.85	NL
6183	Trazegnies	4.3171534	50.4595342	NL
5650	Clermont (Nam.)	4.31917	50.26027	NL
6141	Forchies-la-Marche	4.32036	50.43664	NL
2870	Breendonk	4.32204	51.04309	NL
6140	Fontaine-l'Ev?ue	4.3249526	50.4100558	NL
2070	Zwijndrecht	4.32659	51.21904	NL
1190	Forest	4.32675	50.81745	FR
1190	Vorst	4.32675	50.81745	NL
6464	Forges	4.32792	50.02576	NL
6440	Froidchapelle	4.3282168	50.1500253	NL
1860	Meise	4.3302827	50.9478621	NL
1081	Koekelberg	4.330334	50.859029	NL
1400	Nivelles	4.3308649	50.5886574	NL
6536	Thuillies	4.3309528	50.3003425	NL
2870	Ruisbroek (Antw.)	4.33107	51.08799	NL
6142	Leernes	4.33217	50.39821	NL
1630	Linkebeek	4.3333333	50.7666667	NL
1180	Brussel (Ukkel)	4.3333333	50.8	NL
1180	Uccle	4.3333333	50.8	FR
1180	Ukkel	4.3333333	50.8	NL
1090	Jette	4.3338889	50.8730556	NL
6181	Gouy-lez-Pi?on	4.3342955	50.4908073	NL
2845	Niel	4.334816	51.108922	NL
1880	Ramsdonk	4.33519	51.01483	NL
6461	Virelles	4.33526	50.06582	NL
1652	Alsemberg	4.33613	50.74163	NL
2620	Hemiksem	4.33834	51.14518	NL
1060	Saint-Gilles	4.3402184	50.8301436	FR
1060	Sint-Gillis	4.3402184	50.8301436	NL
1180	Bruxelles (Uccle)	4.34067	50.80241	NL
6464	Bourlers	4.341	50.02716	NL
2627	Schelle	4.341279	51.125843	NL
2070	Burcht	4.34148	51.20367	NL
1421	Ophain-Bois-Seigneur-Isaac	4.34886	50.66642	NL
6182	Souvret	4.3497084	50.4506298	NL
2660	Hoboken (Antwerpen)	4.34992	51.1775732	NL
1049	E.U.-Commissie	4.35023	50.83862	NL
6111	Landelies	4.35075	50.3798	NL
1005	Brusselse Hoofdstedelijke Raad	4.3514335	50.8448768	NL
1000	Brussel	4.3515499	50.8427501	NL
1000	Bruxelles	4.3515499	50.8427501	FR
6534	Goz?	4.351614	50.3334575	NL
1880	Nieuwenrode	4.35229	50.97857	NL
1420	Braine-l'Alleud	4.3538379	50.6969022	NL
1401	Baulers	4.35387	50.61341	NL
5650	Castillon	4.35428	50.24669	NL
6441	Erpion	4.3555674	50.2115372	NL
1853	Strombeek-Bever	4.35564	50.9103739	NL
2830	Tisselt	4.35717	51.03437	NL
1640	Rhode-Saint-Genese	4.35753	50.74594	FR
1640	Sint-Genesius-Rode	4.35753	50.74594	NL
1020	Laeken (Bruxelles)	4.3580002	50.884218	FR
1020	Laken (Brussel)	4.3580002	50.884218	NL
6230	Pont-·Celles	4.3581617	50.513555	NL
1045	D.I.V.	4.3599077	50.8581573	NL
6030	Goutroux	4.3607435	50.4068438	NL
1012	Parlement de la Communaut·fran?ise	4.3619924	50.8466387	NL
6230	Obaix	4.362374	50.527809	NL
1880	Kapelle-op-den-Bos	4.363771	51.009329	NL
2830	Willebroek	4.36404	51.05983	NL
1049	U.E.-Commission	4.3643523	50.8393846	NL
1008	Chambre des Repr?entants	4.3646622	50.8465568	FR
1008	Kamer van Volksvertegenwoordigers	4.3646622	50.8465568	NL
6462	Vaulx-lez-Chimay	4.36487	50.06118	NL
1852	Beigem	4.3660653	50.9528364	NL
6180	Courcelles	4.3662504	50.4577042	NL
1050	Brussel (Elsene)	4.3666667	50.8333333	NL
1050	Bruxelles (Ixelles)	4.3666667	50.8333333	FR
1050	Elsene	4.3666667	50.8333333	FR
1050	Ixelles	4.3666667	50.8333333	FR
6230	Buzet	4.3667175	50.5381032	NL
1428	Lillois-Witterz?	4.36712	50.64567	NL
1005	Conseil Region Bruxelles-Capitale	4.367408	50.847857	NL
1048	E.U.-Raad	4.367408	50.847857	NL
1048	U.E.-Conseil	4.367408	50.847857	FR
1402	Thines	4.36846	50.59734	NL
6464	Ri?es	4.36891	49.95914	NL
2850	Boom	4.368926	51.091541	NL
6120	Marbaix (Ht.)	4.369811	50.329886	NL
1210	Brussel (Sint-Joost-ten-Node)	4.3704657	50.8537715	NL
1210	Bruxelles (Saint-Josse-ten-Noode)	4.3704657	50.8537715	FR
1210	Saint-Josse-ten-Noode	4.3704657	50.8537715	FR
1210	Sint-Joost-ten-Node	4.3704657	50.8537715	FR
2940	Stabroek	4.3727778	51.3322222	NL
1047	Europees Parlement	4.3749766	50.8388665	NL
1047	Parlement Europ?n	4.3749766	50.8388665	FR
6464	Baileux	4.37605	50.02871	NL
6031	Monceau-sur-Sambre	4.376359	50.4166487	NL
2830	Blaasveld	4.37719	51.05583	NL
1030	Brussel (Schaarbeek)	4.37727	50.86744	NL
1030	Bruxelles (Schaerbeek)	4.37727	50.86744	FR
1030	Schaarbeek	4.37727	50.86744	FR
1030	Schaerbeek	4.37727	50.86744	FR
6110	Montigny-le-Tilleul	4.3779578	50.3744413	NL
6440	Boussu-lez-Walcourt	4.3780579	50.2278614	NL
6463	Lompret	4.37839	50.06409	NL
1850	Grimbergen	4.3785596	50.9356235	NL
1851	Humbeek	4.3795118	50.9672327	NL
1414	Promo-Control	4.3829613	50.7180368	NL
1100	Postcheque	4.3844	50.81349	NL
2630	Aartselaar	4.3847222	51.1338889	NL
5650	Fontenelle	4.38487	50.24979	NL
6044	Roux	4.3859913	50.4411759	NL
6120	Ham-sur-Heure	4.3880774	50.3221203	NL
1040	Brussel (Etterbeek)	4.388949	50.832177	NL
1040	Bruxelles (Etterbeek)	4.388949	50.832177	FR
1040	Etterbeek	4.388949	50.832177	FR
6120	Cour-sur-Heure	4.3894514	50.3002201	NL
5651	Rogn?	4.39011	50.26712	NL
6238	Luttre	4.3914653	50.5097805	NL
2610	Wilrijk (Antwerpen)	4.3942868	51.1683102	NL
1009	Senat de Belgique	4.39565	50.79834	NL
6030	Marchienne-au-Pont	4.3957235	50.4055222	NL
1120	Brussel (Neder-Over-Heembeek)	4.396911	50.905667	NL
1120	Bruxelles (Neder-Over-Heembeek)	4.396911	50.905667	FR
1120	Neder-Over-Heembeek (Bru.)	4.396911	50.905667	FR
1818	VTM	4.397676	50.914158	NL
1410	Waterloo	4.3991	50.71469	NL
2840	Terhagen	4.3992612	51.0791977	NL
1140	Brussel (Evere)	4.4	50.8666667	NL
1140	Bruxelles (Evere)	4.4	50.8666667	FR
1140	Evere	4.4	50.8666667	FR
5651	Berz?	4.40151	50.28867	NL
1044	RTBF	4.402889	50.85079	NL
1043	VRT	4.4043556	50.8530691	NL
2940	Hoevenen	4.4047295	51.3061855	NL
6032	Mont-sur-Marchienne	4.405458	50.3886584	NL
2830	Heindonk	4.40756	51.0673	NL
6230	Viesville	4.4088253	50.4897213	NL
5660	Aublain	4.4091	50.06753	NL
6210	R?es	4.41037	50.53731	NL
5630	Cerfontaine	4.4106675	50.1692214	NL
1476	Houtain-le-Val	4.4113773	50.5829629	NL
5630	Silenrieux	4.4121787	50.2245931	NL
2840	Reet	4.4125882	51.1011334	NL
6120	Jamioulx	4.4127538	50.3528183	NL
2801	Heffen	4.4137291	51.0468914	NL
1170	Brussel (Watermaal-Bosvoorde)	4.414715	50.800919	NL
1170	Watermaal-Bosvoorde	4.414715	50.800919	NL
1130	Brussel (Haren)	4.41675	50.89562	NL
1130	Haren (Brussel)	4.41675	50.89562	NL
1130	Haren (Bruxelles)	4.41675	50.89562	FR
1130	Bruxelles (Haeren)	4.4175965	50.8921287	NL
2811	Leest	4.4176682	51.0328978	NL
2180	Ekeren (Antwerpen)	4.4184495	51.2807314	NL
2600	Berchem (Antwerpen)	4.4188392	51.1955771	NL
5660	Presgaux	4.42058	50.02449	NL
6238	Liberchies	4.4215203	50.5138157	NL
2840	Rumst	4.4217895	51.0804212	NL
1110	NAVO - NATO	4.4219707	50.8762831	NL
1110	OTAN - NATO	4.4219707	50.8762831	FR
9870	Machelen (O.-Vl.)	4.4219707	50.8762831	NL
1200	Brussel (Sint-Lambrechts-Woluwe)	4.423892	50.842365	NL
1200	Bruxelles (Woluwe-Saint-Lambert)	4.423892	50.842365	FR
1200	Sint-Lambrechts-Woluwe	4.423892	50.842365	FR
1200	Woluwe-Saint-Lambert	4.423892	50.842365	FR
1800	Vilvoorde	4.424078	50.927262	NL
1170	Bruxelles (Watermael-Boitsfort)	4.42436	50.79749	NL
1170	Watermael-Boitsfort	4.42436	50.79749	NL
5660	Gonrieux	4.42637	50.03609	NL
1160	Bruxelles (Auderghem)	4.42649	50.81643	NL
5650	Walcourt	4.4267048	50.2537328	NL
1804	Cargovil	4.427268	50.947259	NL
1380	Plancenoit	4.42863	50.66196	NL
1201	R.T.L. - T.V.I.	4.4297282	50.8574037	NL
6230	Thim?n	4.4297958	50.485343	NL
6020	Dampremy	4.4308155	50.4171274	NL
6464	l'Escaill?e	4.4316346	49.9471226	NL
6041	Gosselies	4.4322027	50.4688896	NL
1830	Machelen (Bt.)	4.43229	50.9119	NL
5651	Thy-le-Ch?eau	4.43265	50.28077	NL
1160	Auderghem	4.4333333	50.8166667	NL
1160	Brussel (Oudergem)	4.4333333	50.8166667	FR
1160	Oudergem	4.4333333	50.8166667	NL
1831	Diegem	4.4346964	50.8976668	NL
5660	Dailly	4.43647	50.05784	NL
6040	Jumet (Charleroi)	4.4370311	50.4427249	NL
2650	Edegem	4.4380338	51.152982	NL
5630	Soumoy	4.4382183	50.1899126	NL
5650	Pry	4.44012	50.27231	NL
2140	Borgerhout (Antwerpen)	4.4405633	51.213847	NL
1472	Vieux-Genappe	4.4405969	50.6082918	NL
2811	Hombeek	4.4427697	51.014356	NL
6001	Marcinelle	4.4436699	50.3922481	NL
1471	Loupoigne	4.4445799	50.5978099	NL
6120	Nalinnes	4.4465124	50.3241156	NL
6120	Ham-sur-Heure-Nalinnes	4.4465124	50.3241156	FR
6042	Lodelinsart	4.44718	50.4315093	NL
6210	Les Bons Villers	4.4476802	50.5427462	NL
2550	Kontich	4.44784	51.131279	NL
2950	Kapellen (Antw.)	4.4481538	51.3361728	NL
5650	Vogen?	4.44819	50.24012	NL
2170	Merksem (Antwerpen)	4.448539	51.2512741	NL
6000	Charleroi	4.449213	50.4157265	NL
2640	Mortsel	4.45	51.1666667	NL
1932	Sint-Stevens-Woluwe	4.4502354	50.8691972	NL
1470	Genappe	4.4503759	50.6108278	NL
1150	Brussel (Sint-Pieters-Woluwe)	4.45163	50.83618	NL
1150	Bruxelles (Woluwe-Saint-Pierre)	4.45163	50.83618	FR
1150	Sint-Pieters-Woluwe	4.45163	50.83618	FR
1150	Woluwe-Saint-Pierre	4.45163	50.83618	FR
1800	Peutie	4.45188	50.92847	NL
6210	Frasnes-lez-Gosselies	4.45215	50.5379	NL
1931	Brucargo	4.452214	50.903293	NL
5650	Chastr?	4.45309	50.26707	NL
1473	Glabais	4.4532789	50.6302595	NL
1980	Eppegem	4.4544329	50.9621231	NL
2550	Waarloos	4.4546959	51.105061	NL
5660	Cul-des-Sarts	4.4547	49.96204	NL
2910	Essen	4.4558333	51.4616667	NL
1980	Zemst	4.455834	50.985535	NL
5630	Daussois	4.4563959	50.2195367	NL
2800	Walem	4.4572147	51.0676813	NL
8433	Sint-Pieters-Kapelle (W.-Vl.)	4.4574264	50.8571657	NL
5651	Gourdinne	4.4578	50.29004	NL
6010	Couillet	4.4589418	50.3914084	NL
1950	Kraainem	4.4592974	50.8610856	NL
5660	Pesche	4.45971	50.04282	NL
2100	Deurne (Antwerpen)	4.4619208	51.1891603	NL
1474	Ways	4.4644969	50.6104429	NL
5630	Senzeille	4.4646004	50.176804	NL
5660	Br?y-de-Pesche	4.46496	50.00173	NL
1380	Maransart	4.46745	50.65953	NL
1380	Ohain	4.46919	50.69907	NL
2540	Hove	4.47104	51.1539	NL
5660	Boussu-en-Fagne	4.47235	50.07667	NL
1380	Couture-Saint-Germain	4.47252	50.67502	NL
6210	Wayaux	4.47364	50.48991	NL
6280	Loverval	4.4737	50.3747	NL
1560	Hoeilaart	4.4740458	50.7674863	NL
2920	Kalmthout	4.47518	51.38298	NL
6043	Ransart	4.4760083	50.4617198	NL
1470	Baisy-Thy	4.4760976	50.5969876	NL
2800	Mechelen	4.4775365	51.0258791	NL
6061	Montignies-sur-Sambre	4.4777803	50.4018544	NL
1820	Melsbroek	4.47846	50.91512	NL
6060	Gilly (Charleroi)	4.4785997	50.4240349	NL
6211	Mellet	4.47881	50.50554	NL
1982	Weerde	4.4793294	50.9721843	NL
6210	Villers-Perwin	4.47983	50.52779	NL
1380	Lasne	4.48135	50.68736	NL
2150	Borsbeek (Antw.)	4.481594	51.194179	NL
5630	Villers-Deux-Eglises	4.4824262	50.1899091	NL
1930	Zaventem	4.4826212	50.8795024	NL
5651	Somz?	4.48336	50.29517	NL
1310	La Hulpe	4.4856707	50.7309955	NL
1934	Brussel X-Luchthaven Remailing	4.4878174	50.8923428	NL
1934	Bruxelles X-Aeroport Remailing	4.4878174	50.8923428	FR
5651	Laneffe	4.4909	50.27743	NL
1495	Sart-Dames-Avelines	4.49164	50.56853	NL
5650	Yves-Gomez?	4.4918	50.2403	NL
1981	Hofstade (Bt.)	4.4924542	50.9916699	NL
1332	Genval	4.49388	50.7211	NL
2930	Brasschaat	4.49419	51.29227	NL
5660	Couvin	4.49457	50.05197	NL
6220	Heppignies	4.49575	50.4845	NL
1820	Perk	4.49592	50.93488	NL
5651	Tarcienne	4.49637	50.3116	NL
1982	Elewijt	4.4964542	50.9618503	NL
2547	Lint	4.496904	51.127649	NL
2530	Boechout	4.49717	51.1664397	NL
2900	Schoten	4.4977063	51.2497532	NL
1380	Lasne-Chapelle-Saint-Lambert	4.5039619	50.693345	NL
1470	Bousval	4.5051441	50.6149444	NL
5660	Petite-Chapelle	4.50533	49.95007	NL
2860	Sint-Katelijne-Waver	4.5055555	51.0614235	NL
5600	Jamiolle	4.50666	50.20988	NL
1930	Nossegem	4.5074739	50.8781921	NL
3080	Tervuren	4.50775	50.82595	NL
5650	Fraire	4.50801	50.26044	NL
1820	Steenokkerzeel	4.5083333	50.9188889	NL
1970	Wezembeek-Oppem	4.50848	50.83854	NL
2570	Duffel	4.5099	51.095286	NL
6280	Joncret	4.51333	50.35344	NL
1010	Rijksadministratief Centrum	4.5139543	50.8243276	NL
5660	Frasnes (Nam.)	4.51432	50.08121	NL
5600	Neuville (Philippeville)	4.51452	50.17249	NL
2110	Wijnegem	4.5155556	51.2277778	NL
2812	Muizen (Mechelen)	4.5157593	51.0103798	NL
1933	Sterrebeek	4.5161823	50.8632635	NL
6200	Bouffioulx	4.51635	50.39072	NL
1495	Villers-la-Ville	4.5166667	50.5666667	NL
5660	Mariembourg	4.51808	50.09369	NL
6200	Ch?elineau	4.51986	50.41533	NL
6220	Wangenies	4.51986	50.47957	NL
6240	Pironchamps	4.52028	50.4316	NL
1341	C?oux-Mousty	4.5204882	50.660369	NL
2160	Wommelgem	4.522188	51.203981	NL
5621	Thy-le-Bauduin	4.52296	50.29619	NL
2531	Vremde	4.52311	51.17486	NL
6200	Ch?elet	4.527303	50.403156	NL
5660	Br?y	4.52759	49.96847	NL
6280	Gerpinnes	4.5277925	50.3373282	NL
1330	Rixensart	4.5306325	50.7109736	NL
5600	Jamagne	4.53081	50.21732	NL
5660	Petigny	4.53171	50.05861	NL
6223	Wagnel?	4.53371	50.52301	NL
6280	Acoz	4.53391	50.35858	NL
5600	Samart	4.53417	50.17821	NL
3090	Overijse	4.53475	50.77381	NL
6220	Fleurus	4.5363885	50.4771076	NL
3070	Kortenberg	4.536917	50.8852298	NL
5600	Roly	4.53736	50.13591	NL
1495	Marbais (Bt.)	4.54067	50.54956	NL
6240	Farciennes	4.5415	50.42994	NL
5600	Philippeville	4.5430358	50.1958462	NL
1331	Rosi?es	4.54441	50.73015	NL
5621	Hanzinne	4.54547	50.31294	NL
6250	Pont-de-Loup	4.54547	50.41619	NL
5670	Nismes	4.54738	50.07506	NL
2820	Bonheiden	4.54803	51.02221	NL
6280	Villers-Poterie	4.54905	50.35363	NL
6221	Saint-Amand	4.54986	50.50637	NL
3191	Hever	4.55135	50.995	NL
3080	Duisburg	4.55184	50.81569	NL
6220	Lambusart	4.55332	50.45453	NL
1495	Tilly	4.55491	50.56052	NL
1910	Kampenhout	4.5551	50.941837	NL
6222	Brye	4.55809	50.52397	NL
5621	Hanzinelle	4.55989	50.29571	NL
3080	Vossem	4.56026	50.83577	NL
5600	Sautour	4.56043	50.17018	NL
3071	Erps-Kwerps	4.5607782	50.9006097	NL
5600	Fagnolle	4.56083	50.10493	NL
2520	Ranst	4.5609189	51.1889958	NL
2970	's Gravenwezel	4.56096	51.26292	NL
5620	Hemptinne-lez-Florennes	4.56281	50.22856	NL
1910	Nederokkerzeel	4.56481	50.91876	NL
5621	Morialm·4.56593	50.27498	NL	
1340	Ottignies	4.5669046	50.665465	NL
1340	Ottignies-Louvain-la-Neuve	4.5669046	50.665465	FR
1490	Court-Saint-Etienne	4.5680813	50.6422504	NL
1495	Mellery	4.56878	50.58175	NL
3078	Everberg	4.5712345	50.8788296	NL
1342	Limelette	4.571335	50.6846872	NL
2500	Lier	4.5715092	51.1302138	NL
6250	Roselies	4.57179	50.42978	NL
2960	Sint-Job-in-'t-Goor	4.5732	51.29827	NL
1300	Limal	4.5732954	50.6934506	NL
3190	Boortmeerbeek	4.5744373	50.9803397	NL
6280	Gougnies	4.57528	50.3552	NL
2861	Onze-Lieve-Vrouw-Waver	4.5754857	51.0639394	NL
5620	Saint-Aubin	4.57657	50.24851	NL
5140	Ligny	4.57702	50.51228	NL
6250	Presles	4.57866	50.38391	NL
6250	Aiseau-Presles	4.5809294	50.4080301	NL
5060	Keumi?	4.5824	50.46141	NL
2970	Schilde	4.5834231	51.2407352	NL
5060	Moignel?	4.58455	50.44542	NL
5600	Villers-en-Fagne	4.58566	50.14721	NL
6250	Aiseau	4.58644	50.41114	NL
1301	Bierges	4.5871684	50.7113795	NL
6224	Wanferc?-Baulet	4.58783	50.47274	NL
3040	Huldenberg	4.5880687	50.7885995	NL
3078	Meerbeek	4.5892898	50.8818641	NL
2820	Rijmenam	4.5902677	51.0037609	NL
5670	Dourbes	4.59115	50.09146	NL
2990	Wuustwezel	4.5912313	51.38945	NL
5600	Vodec?	4.59308	50.19796	NL
3061	Leefdaal	4.5939	50.84866	NL
2520	Oelegem	4.5997149	51.2129972	NL
2520	Broechem	4.6020124	51.1813334	NL
5070	Sart-Eustache	4.60259	50.3754	NL
5140	Sombreffe	4.603259	50.528452	NL
2520	Emblem	4.605068	51.1620413	NL
1450	Gentinnes	4.60673	50.57796	NL
5670	Olloy-sur-Viroin	4.60753	50.07259	NL
5060	Tamines	4.60819	50.43353	NL
5140	Boign?	4.60938	50.50024	NL
5600	Villers-le-Gambon	4.60944	50.19129	NL
2500	Koningshooikt	4.61011	51.09522	NL
5640	Biesme	4.61024	50.33987	NL
3040	Loonbeek	4.61029	50.80972	NL
5060	Velaine-sur-Sambre	4.61031	50.47847	NL
1435	Mont-Saint-Guibert	4.6107385	50.6348554	NL
5600	Merlemont	4.6111	50.17645	NL
5680	Matagne-la-Grande	4.61146	50.12081	NL
1450	Saint-G?y	4.61236	50.58046	NL
1300	Wavre	4.6128257	50.7158951	NL
1348	Louvain-la-Neuve	4.6151693	50.6738567	NL
1435	H?illers	4.6154602	50.6215801	NL
5640	Oret	4.61574	50.30206	NL
3040	Ottenburg	4.61579	50.75199	NL
1910	Buken	4.61694	50.93953	NL
3020	Veltem-Beisem	4.620825	50.9063184	NL
5060	Falisolle	4.62087	50.41776	NL
5600	Sart-en-Fagne	4.62201	50.1587	NL
3040	Neerijse	4.62345	50.81743	NL
5070	Le Roux	4.623958	50.387531	NL
5140	Tongrinne	4.6253	50.5155	NL
5600	Franchimont	4.62824	50.18875	NL
2560	Kessel	4.62968	51.13915	NL
5060	Auvelais	4.63024	50.44938	NL
5060	Sambreville	4.630735	50.446734	NL
3060	Bertem	4.6307637	50.8632924	NL
3140	Keerbergen	4.6320416	51.0057936	NL
2580	Putte	4.633303	51.054027	NL
1450	Chastre-Villeroux-Blanmont	4.6333333	50.6	NL
1450	Chastre	4.6333333	50.6	NL
5670	Vierves-sur-Viroin	4.6339	50.08075	NL
3040	Sint-Agatha-Rode	4.63408	50.78559	NL
2240	Massenhoven	4.6364247	51.1986273	NL
3150	Haacht	4.6372222	50.9766667	NL
2960	Brecht	4.6377227	51.3496533	NL
5680	Matagne-la-Petite	4.638	50.11684	NL
3060	Korbeek-Dijle	4.6382	50.83807	NL
5060	Arsimont	4.6388	50.42853	NL
3150	Wespelaar	4.63884	50.95991	NL
5670	Oignies-en-Thi?ache	4.63954	50.02246	NL
1450	Cortil-Noirmont	4.64284	50.58136	NL
2990	Loenhout	4.6432288	51.3990063	NL
3020	Winksele	4.6435179	50.8974666	NL
5190	Bal?re	4.6436	50.49935	NL
3150	Tildonk	4.64449	50.94327	NL
5640	Mettet	4.6464726	50.3174893	NL
2980	Halle (Kempen)	4.6465058	51.2398459	NL
5620	Florennes	4.6468567	50.2451448	NL
5190	Saint-Martin	4.64731	50.50087	NL
5032	Bothey	4.64894	50.52043	NL
5070	Aisemont	4.65209	50.40504	NL
2240	Viersel	4.6523097	51.1890184	NL
3051	Sint-Joris-Weert	4.6544	50.80281	NL
1435	Corbais	4.6553809	50.6462709	NL
2240	Zandhoven	4.6554212	51.2021793	NL
2590	Berlaar	4.6566667	51.1163889	NL
1325	Dion-Valmont	4.6588254	50.6974838	NL
5646	Stave	4.65924	50.28002	NL
3050	Oud-Heverlee	4.659534	50.8282606	NL
5070	Vitrival	4.65956	50.39859	NL
5032	Corroy-le-Ch?eau	4.66279	50.53877	NL
5190	Jemeppe-sur-Sambre	4.6666667	50.4666667	NL
5670	Viroinval	4.667488	50.007066	NL
2580	Beerzel	4.66764	51.05786	NL
1390	Archennes	4.669868	50.7524768	NL
5190	Onoz	4.67036	50.49244	NL
2560	Nijlen	4.6705129	51.1613664	NL
3020	Herent	4.670524	50.908172	NL
5670	Le Mesnil	4.6707979	50.030651	NL
5670	Treignes	4.67256	50.09349	NL
5032	Mazy	4.67263	50.51048	NL
2590	Gestel	4.67316	51.1284	NL
5190	Ham-sur-Sambre	4.67408	50.44341	NL
1390	Nethen	4.6741168	50.7837825	NL
1325	Corroy-le-Grand	4.67458	50.66206	NL
5680	Romer?	4.67538	50.13585	NL
5030	Grand-Manil	4.67548	50.55707	NL
5030	Ernage	4.67689	50.59525	NL
2960	Sint-Lenaarts	4.67703	51.34869	NL
1457	Nil-Saint-Vincent-Saint-Martin	4.67982	50.64214	NL
5640	Biesmer?	4.68005	50.2974	NL
5620	Corenne	4.68021	50.25227	NL
2560	Bevel	4.68038	51.13774	NL
3054	Vaalbeek	4.68938	50.82553	NL
1325	Bonlez	4.68948	50.70193	NL
5620	Ros?	4.68959	50.23307	NL
2242	Pulderbos	4.6919	51.2165685	NL
2223	Schriek	4.69272	51.02745	NL
1390	Bossut-Gottechain	4.6941056	50.7613181	NL
2390	Westmalle	4.6942633	51.2968136	NL
3012	Wilsele	4.69451	50.89047	NL
1457	Walhain	4.6947222	50.6180556	NL
5670	Maz?	4.69575	50.10108	NL
5032	Bossi?e	4.69579	50.518	NL
5190	Moustier-sur-Sambre	4.69583	50.46636	NL
3001	Heverlee	4.69594	50.86386	NL
5070	Fosses-la-Ville	4.69617	50.39455	NL
3000	Leuven	4.6967578	50.8815197	NL
1390	Grez-Doiceau	4.6972809	50.7385816	NL
5600	Romedenne	4.6987	50.17113	NL
5680	Niverl?	4.69985	50.11806	NL
3118	Werchter	4.70007	50.97278	NL
5600	Surice	4.70017	50.18249	NL
5030	Gembloux	4.7016542	50.5742906	NL
5600	Omez?	4.70174	50.19267	NL
3018	Wijgmaal (Brabant)	4.70195	50.92624	NL
1390	Biez	4.7019841	50.7267436	NL
1457	Walhain-Saint-Paul	4.7025798	50.632777	NL
5190	Mornimont	4.70454	50.45906	NL
5641	Furnaux	4.70497	50.30803	NL
3052	Blanden	4.70916	50.82558	NL
5680	Gimn?	4.70925	50.13149	NL
5190	Spy	4.70932	50.4818	NL
2390	Malle	4.7113889	51.2988889	NL
2980	Zoersel	4.7125694	51.2682227	NL
2243	Pulle	4.7137397	51.2032977	NL
3120	Tremelo	4.7159551	50.9956159	NL
1320	Hamme-Mille	4.71694	50.77953	NL
5620	Flavion	4.71824	50.2496	NL
5644	Ermeton-sur-Biert	4.71906	50.29689	NL
1325	Chaumont-Gistoux	4.71943	50.67687	NL
5640	Graux	4.71972	50.32501	NL
2220	Heist-op-den-Berg	4.7210601	51.0633847	NL
3110	Rotselaar	4.7215113	50.9535967	NL
5030	Sauveni?e	4.72348	50.58065	NL
1457	Tourinnes-Saint-Lambert	4.72389	50.63932	NL
5030	Lonz?	4.72637	50.55299	NL
5032	Isnes	4.72827	50.50598	NL
2222	Itegem	4.72927	51.10321	NL
3053	Haasrode	4.72988	50.83159	NL
5150	Soye (Nam.)	4.73041	50.44936	NL
5680	Vodel?	4.73232	50.17245	NL
5150	Frani?e	4.7328	50.43592	NL
2220	Hallaar	4.73293	51.08464	NL
2390	Oostmalle	4.7337542	51.301137	NL
2280	Grobbendonk	4.7349959	51.1832616	NL
1320	Nodebais	4.73555	50.77319	NL
3010	Kessel-Lo (Leuven)	4.73571	50.88514	NL
5680	Soulme	4.73735	50.18873	NL
2321	Meer	4.7383	51.4456	NL
1325	Longueville	4.74014	50.70231	NL
5640	Saint-G?ard	4.7407	50.34597	NL
5070	Sart-Saint-Laurent	4.74169	50.40224	NL
5620	Morville	4.74186	50.23047	NL
2288	Bouwel	4.7420582	51.1719684	NL
5680	Vaucelles	4.74345	50.11286	NL
1320	Tourinnes-la-Grosse	4.74445	50.78281	NL
5030	Beuzet	4.74584	50.53391	NL
5680	Doische	4.7461199	50.1362261	NL
2320	Hoogstraten	4.7468218	51.403297	NL
5537	Den?	4.75223	50.31862	NL
5680	Gochen?	4.75235	50.18388	NL
3128	Baal	4.75304	50.99555	NL
5020	Temploux	4.75434	50.48526	NL
3111	Wezemaal	4.75541	50.9482	NL
2270	Herenthout	4.7564892	51.1394506	NL
5150	Floreffe	4.75922	50.43405	NL
3360	Bierbeek	4.75981	50.8279	NL
5520	Anth?	4.7612111	50.2400205	NL
2310	Rijkevorsel	4.762252	51.348812	NL
3360	Korbeek-Lo	4.76269	50.86019	NL
1360	Orbais	4.76323	50.63757	NL
2322	Minderhout	4.76339	51.41654	NL
1315	Pi?rebais	4.76381	50.72796	NL
1320	Beauvechain	4.767726	50.7554922	NL
2290	Vorselaar	4.7708827	51.2025247	NL
5150	Floriffoux	4.77161	50.45198	NL
3210	Linden	4.77215	50.89393	NL
5031	Grand-Leez	4.77469	50.58374	NL
2221	Booischot	4.77523	51.05151	NL
5170	Lesve	4.77791	50.37686	NL
5020	Suarl?	4.77885	50.48195	NL
1360	Mal?es-Sainte-Marie-Wastines	4.77943	50.65503	NL
5521	Serville	4.78061	50.2501038	NL
5081	Bovesse	4.78061	50.51917	NL
3360	Lovenjoel	4.78148	50.85813	NL
3130	Betekom	4.7817	50.98566	NL
5537	Sosoye	4.78183	50.29518	NL
5081	Saint-Denis-Bovesse	4.78185	50.53532	NL
2340	Vlimmeren	4.7820454	51.2971394	NL
3130	Begijnendijk	4.785	51.0186111	NL
1315	Roux-Miroir	4.78513	50.70811	NL
3220	Holsbeek	4.7861502	50.9248584	NL
1360	Thorembais-Saint-Trond	4.78646	50.63465	NL
2275	Wechelderzande	4.7869444	51.2608333	NL
2235	Hulshout	4.7891667	51.075	NL
3360	Opvelp	4.79333	50.81009	NL
5522	Fala·	4.7936119	50.278965	NL
2323	Wortel	4.79475	51.39751	NL
5020	Malonne	4.79566	50.43896	NL
5544	Agimont	4.79594	50.16573	NL
3212	Pellenberg	4.79603	50.87116	NL
5537	Bioul	4.7961	50.33112	NL
1315	Incourt	4.7966	50.69188	NL
2222	Wiekevorst	4.79693	51.10759	NL
1315	Opprebais	4.79819	50.67946	NL
5081	Meux	4.80103	50.55196	NL
3200	Gelrode	4.80272	50.96548	NL
5080	Rhisnes	4.80568	50.50626	NL
3220	Kortrijk-Dutsel	4.80762	50.92569	NL
5540	Hasti?e	4.808074	50.2127777	NL
3370	Neervelp	4.80811	50.821	NL
2235	Houtvenne	4.80894	51.04208	NL
5020	Flawinne	4.81096	50.45738	NL
1360	Perwez	4.81503	50.62395	NL
5080	La Bruy?e	4.8150906	50.507393	NL
5524	Gerin	4.8161879	50.2460666	NL
5540	Hermeton-sur-Meuse	4.81672	50.19776	NL
1360	Thorembais-les-B?uines	4.81728	50.65799	NL
1370	Dongelberg	4.82007	50.70338	NL
3220	Sint-Pieters-Rode	4.82057	50.93239	NL
2200	Morkhoven	4.8207292	51.1200863	NL
5170	Arbre (Nam.)	4.82126	50.36612	NL
2328	Meerle	4.8232	51.45725	NL
2275	Lille	4.8232254	51.2420452	NL
5170	Bois-de-Villers	4.82408	50.39019	NL
5540	Hasti?e-Lavaux	4.82455	50.2183	NL
5523	Weillen	4.8251335	50.2605516	NL
5001	Belgrade	4.8256487	50.4707019	NL
1370	Lathuy	4.82613	50.72366	NL
3200	Aarschot	4.827381	50.9806151	NL
1370	M?in	4.82852	50.73979	NL
5541	Hasti?e-par-Del·4.82904	50.21479	NL	
3210	Lubbeek	4.8292252	50.8813339	NL
5310	Liernu	4.83077	50.58369	NL
1320	l'Ecluse	4.83183	50.77184	NL
5543	Heer	4.83208	50.16347	NL
2230	Ramsel	4.8328	51.03211	NL
3370	Boutersem	4.8333333	50.8333333	NL
3221	Nieuwrode	4.83339	50.94955	NL
5002	Saint-Servais	4.8344548	50.4766054	NL
3370	Vertrijk	4.83455	50.82976	NL
2235	Westmeerbeek	4.8351	51.06032	NL
2275	Poederlee	4.8353147	51.2263125	NL
2200	Herentals	4.8355946	51.1768541	NL
1370	Jodoigne-Souveraine	4.83678	50.70898	NL
3320	Meldert (Bt.)	4.83772	50.78801	NL
1315	Glimes	4.83774	50.6796	NL
5520	Onhaye	4.8379125	50.2425159	NL
5310	Aische-en-Refail	4.83819	50.59948	NL
2200	Noorderwijk	4.8388348	51.1393923	NL
5310	Saint-Germain	4.8422	50.57266	NL
5523	Sommi?e	4.8428128	50.2737609	NL
5537	Haut-le-Wastia	4.84293	50.30597	NL
5542	Blaimont	4.84295	50.19197	NL
1370	Jauchelette	4.84358	50.68631	NL
5537	Warnant	4.8444	50.32284	NL
5080	Emines	4.84469	50.51212	NL
3370	Willebringen	4.84491	50.81281	NL
5080	Villers-lez-Heest	4.84558	50.52998	NL
5003	Saint-Marc	4.847325	50.4915149	NL
5537	Annevoie-Rouillon	4.84882	50.34738	NL
5570	Felenne	4.8491337	50.0681342	NL
5000	Namur	4.8504571	50.459267	NL
5575	Willerzie	4.85083	49.98778	NL
2340	Beerse	4.851822	51.32096	NL
5575	Bourseigne-Neuve	4.85486	50.02487	NL
1367	Geest-G?ompont-Petit-Rosi?e	4.85744	50.64088	NL
3390	Houwaart	4.85789	50.93291	NL
5310	Dhuy	4.8593	50.55964	NL
1370	Saint-Remy-Geest	4.86019	50.74636	NL
3370	Roosbeek	4.86231	50.83564	NL
5100	W?ion	4.8633172	50.421206	NL
2330	Merksplas	4.86339	51.35805	NL
1367	Mont-Saint-Andr·4.86451	50.65524	NL	
1367	Grand-Rosi?e-Hottomont	4.86494	50.6316	NL
5540	Waulsort	4.86621	50.20362	NL
5080	Warisoulx	4.86659	50.5366	NL
5170	Profondeville	4.8674002	50.3756621	NL
2275	Gierle	4.8677063	51.2671512	NL
5550	Pussemange	4.86835	49.81127	NL
3320	Hoegaarden	4.8685676	50.7806488	NL
2260	Zoerle-Parwijs	4.86894	51.08879	NL
5575	Bourseigne-Vieille	4.87024	50.02212	NL
3201	Langdorp	4.87083	50.99531	NL
1370	Jodoigne	4.87115	50.72336	NL
5100	Jambes (Namur)	4.871877	50.4563673	NL
5310	Upigny	4.87223	50.57163	NL
3390	Sint-Joris-Winge	4.87258	50.90443	NL
5530	Godinne	4.87325	50.34788	NL
1367	Bomal (Bt.)	4.87332	50.6711	NL
3370	Kerkom	4.87451	50.85519	NL
5170	Rivi?e	4.87453	50.35655	NL
5550	Bagimont	4.8751812	49.8241864	NL
5310	Mehaigne	4.87607	50.59443	NL
5020	Vedrin	4.8760877	50.5022173	NL
5537	Anh?	4.87829	50.31064	NL
1367	G?ompont	4.88169	50.64847	NL
2230	Herselt	4.882259	51.05102	NL
3211	Binkom	4.88439	50.87119	NL
5575	Rienne	4.88446	49.99239	NL
5560	Mesnil-Saint-Blaise	4.885058	50.1688094	NL
5550	Bohan	4.8853198	49.8635093	NL
1370	Z?rud-Lumay	4.8859	50.75792	NL
3390	Tielt-Winge	4.8866603	50.9206968	NL
3300	Kumtich	4.88742	50.82246	NL
5100	Dave	4.8877835	50.4143728	NL
2350	Vosselaar	4.8883333	51.3080556	NL
5020	Daussoulx	4.8886216	50.5181967	NL
5570	Dion	4.8891263	50.1177827	NL
5004	Bouge	4.8915392	50.4719872	NL
3300	Oorbeek	4.8924	50.79811	NL
5310	Longchamps (Nam.)	4.89262	50.57787	NL
5500	Falmignoul	4.8926759	50.2054304	NL
5310	Noville-sur-M?aigne	4.89308	50.60924	NL
2387	Baarle-Hertog	4.8933004	51.4069842	NL
1367	Huppaye	4.89383	50.69347	NL
5570	Winenne	4.8939936	50.0967777	NL
3202	Rillaar	4.89422	50.97438	NL
1370	Saint-Jean-Geest	4.89548	50.73964	NL
2460	Tielen	4.8976789	51.2434976	NL
5500	Falmagne	4.8977622	50.1999538	NL
5530	Houx	4.89834	50.30173	NL
5170	Lustin	4.89876	50.37825	NL
2250	Olen	4.8989077	51.1662602	NL
5500	Bouvignes-sur-Meuse	4.89926	50.2721114	NL
5310	Eghez?	4.9	50.5833333	NL
1367	Ramillies	4.9	50.6333333	NL
5020	Champion	4.9015766	50.4958176	NL
5550	Membre	4.9019226	49.8657061	NL
5550	Sugny	4.9019318	49.8143846	NL
5530	Mont (Nam.)	4.90291	50.35335	NL
1367	Autre-Eglise	4.90375	50.66926	NL
2260	Oevel	4.90411	51.13822	NL
3390	Tielt (Bt.)	4.90429	50.94079	NL
3300	Vissenaken	4.90484	50.83768	NL
5101	Erpent	4.9050011	50.4516025	NL
5570	Beauraing	4.9059609	50.1003926	NL
5310	Leuze (Nam.)	4.90619	50.54604	NL
5500	Anseremme	4.9063851	50.2384651	NL
5022	Cognel?	4.9070712	50.5148464	NL
5000	Beez	4.911834	50.4686653	NL
5530	Evrehailles	4.91206	50.32046	NL
5530	Yvoir	4.912835	50.3204142	NL
2260	Westerlo	4.91434	51.08995	NL
5570	Feschaux	4.914895	50.1511238	NL
2260	Tongerlo (Antw.)	4.91565	51.10533	NL
5575	Sart-Custinne	4.91675	50.00147	NL
2460	Lichtaart	4.916926	51.2246769	NL
5500	Dinant	4.9169434	50.2340362	NL
5550	Nafraiture	4.9174164	49.910876	NL
3321	Outgaarden	4.91793	50.76521	NL
5570	Javingue	4.9190727	50.1022158	NL
5575	Vencimont	4.92063	50.03169	NL
1370	Pi?rain	4.9207	50.72476	NL
5100	Naninne	4.9239001	50.4185928	NL
5101	Lives-sur-Meuse	4.9241044	50.4654959	NL
3384	Attenrode	4.9242614	50.8771186	NL
3391	Meensel-Kiezegem	4.92592	50.8965	NL
5310	Waret-la-Chauss?	4.92644	50.54281	NL
1350	Enines	4.92655	50.69366	NL
5575	Louette-Saint-Pierre	4.92748	49.96054	NL
3272	Messelbroek	4.9274801	50.9933331	NL
5550	Orchimont	4.9282121	49.8936202	NL
5310	Bolinne	4.9294	50.60083	NL
5550	Lafor?	4.9299586	49.8632092	NL
5310	Taviers (Nam.)	4.93154	50.61733	NL
5021	Boninne	4.9324641	50.4953566	NL
5550	Vresse-sur-Semois	4.9326558	49.8725882	NL
5575	Gedinne	4.93707	49.98081	NL
2300	Turnhout	4.9375577	51.3216509	NL
1350	Folx-les-Caves	4.9376	50.66042	NL
3300	Bost	4.94063	50.78839	NL
5380	Marchovelette	4.94149	50.52285	NL
3461	Molenbeek-Wersbeek	4.94157	50.91848	NL
5330	Assesse	4.9421604	50.3777222	NL
3380	Bunsbeek	4.9426464	50.842165	NL
3300	Tienen	4.943227	50.808465	NL
5530	Purnode	4.94403	50.31218	NL
5500	Dr?ance	4.94406	50.23702	NL
5560	Finnevaux	4.944139	50.1580053	NL
5575	Houdremont	4.94426	49.94148	NL
5570	Baronville	4.9443786	50.1271366	NL
5380	Tillier	4.94581	50.54459	NL
5560	Hulsonniaux	4.9465427	50.2013267	NL
5310	Hanret	4.94767	50.58092	NL
3381	Kapellen (Bt.)	4.9501898	50.8852681	NL
5100	Wierde	4.9509671	50.4260307	NL
3300	Goetsenhoven	4.95114	50.76781	NL
5550	Chairi?e	4.9511929	49.8620429	NL
5575	Patignies	4.9513	50.00003	NL
2431	Varendonk	4.9513	51.08397	NL
5101	Loyers	4.9517789	50.462857	NL
1350	Marilles	4.95274	50.70716	NL
1350	Jauche	4.9547	50.68298	NL
1350	Orp-Jauche	4.9547	50.68298	NL
3272	Testelt	4.9549334	51.016921	NL
5310	Boneffe	4.95508	50.62508	NL
3300	Sint-Margriete-Houtem (Tienen)	4.95539	50.82836	NL
5024	Gelbress?	4.956101	50.5055017	NL
5380	Cortil-Wodon	4.95689	50.56767	NL
5575	Louette-Saint-Denis	4.95786	49.95837	NL
3380	Glabbeek-Zuurbemde	4.9583256	50.8602725	NL
5500	Furfooz	4.9588076	50.2239409	NL
5024	Marche-les-Dames	4.9602568	50.4863306	NL
5332	Crupet	4.96124	50.35009	NL
5570	Wancennes	4.9616119	50.091743	NL
5575	Malvoisin	4.96239	50.01107	NL
5330	Sart-Bernard	4.96308	50.40244	NL
5550	Mouzaive	4.96318	49.85379	NL
5560	Mesnil-Eglise	4.96349	50.16494	NL
2460	Kasterlee	4.9674402	51.2405124	NL
1350	Noduwez	4.96791	50.72923	NL
5555	Petit-Fays	4.9686731	49.9020888	NL
5550	Alle	4.9696522	49.8420224	NL
5330	Maillen	4.9707476	50.377213	NL
5501	Lisogne	4.9710519	50.2808581	NL
5555	Bellefontaine (Nam.)	4.9726249	49.917607	NL
5310	Branchon	4.97352	50.62887	NL
5530	Dorinne	4.97588	50.31501	NL
1357	Opheylissem	4.97628	50.74699	NL
5571	Wiesme	4.9773685	50.1484609	NL
3271	Averbode	4.977454	51.0305467	NL
5570	Von?he	4.9780885	50.0614965	NL
3270	Scherpenheuvel	4.9785767	50.9742707	NL
3270	Scherpenheuvel-Zichem	4.9785767	50.9742707	FR
5503	Sorinnes	4.9789243	50.2592464	NL
5300	Maizeret	4.9790011	50.4596144	NL
1350	Jandrain-Jandrenouille	4.97969	50.67368	NL
5560	Houyet	4.9798922	50.1694226	NL
5380	Franc-Waret	4.98141	50.52081	NL
2360	Oud-Turnhout	4.982845	51.3177601	NL
3271	Zichem	4.9830118	51.0006721	NL
5555	Gros-Fays	4.9831444	49.8704212	NL
1357	H??ine	4.9833333	50.75	NL
5380	Noville-les-Bois	4.98419	50.55676	NL
3300	Hakendover	4.98525	50.79706	NL
5336	Courri?e	4.98532	50.37994	NL
5340	Mozet	4.98537	50.44425	NL
5380	Fernelmont	4.9855556	50.5536111	NL
3460	Bekkevoort	4.985641	50.9426234	NL
5530	Durnal	4.98662	50.3363	NL
3471	Hoeleden	4.9869	50.86828	NL
5502	Thynes	4.9871679	50.2795875	NL
2431	Veerle	4.98721	51.06994	NL
3300	Oplinter	4.98757	50.82923	NL
5555	Monceau-en-Ardenne	4.9877688	49.9057594	NL
1357	Neerheylissem	4.98819	50.75693	NL
5380	Hemptinne (Fernelmont)	4.98838	50.60327	NL
1350	Orp-le-Grand	4.98973	50.70297	NL
2440	Geel	4.989791	51.164768	NL
5504	Foy-Notre-Dame	4.9898697	50.2469536	NL
2381	Weelde	4.9908357	51.406763	NL
5300	Nam?he	4.9945844	50.4719758	NL
3472	Kersbeek-Miskom	4.9947222	50.885	NL
5380	Forville	4.99828	50.57391	NL
5555	Cornimont	4.9983726	49.8622424	NL
2430	Eindhout	4.9997	51.10334	NL
5576	Froidfontaine	4.9997173	50.0595602	NL
3400	Ezemaal	5.00016	50.77609	NL
4280	Merdorp	5.00044	50.64832	NL
1357	Linsmeau	5.00155	50.73452	NL
6830	Poupehan	5.002763	49.8115256	NL
3473	Waanrode	5.00464	50.91619	NL
4219	Wasseiges	5.0055556	50.6227778	NL
5530	Spontin	5.00575	50.32233	NL
5561	Celles (Nam.)	5.0057628	50.23038	NL
5380	Hingeon	5.00687	50.52545	NL
4287	Pellaines	5.00709	50.72588	NL
6830	Rochehaut	5.0076505	49.8411879	NL
6838	Corbion	5.0076838	49.7971683	NL
5300	Vezin	5.0087682	50.4958205	NL
5555	Oizy	5.0091739	49.8936411	NL
3400	Eliksem	5.00968	50.78487	NL
5574	Pondr?e	5.010168	50.0988595	NL
3294	Molenstede	5.01347	51.00378	NL
5300	Thon	5.0145871	50.4633535	NL
3460	Assent	5.0159	50.95248	NL
5555	Bievre	5.0165882	49.9414154	NL
4280	Petit-Hallet	5.01721	50.68758	NL
6929	Haut-Fays	5.0175845	50.0011935	NL
3350	Wommersom	5.01796	50.81338	NL
4219	Meeffe	5.01821	50.6075	NL
2380	Ravels	5.0185568	51.3762015	NL
3293	Kaggevinne	5.01896	50.97937	NL
4280	Wansin	5.01904	50.67898	NL
5340	Faulx-les-Tombes	5.02089	50.42693	NL
5380	Pontillas	5.02104	50.54909	NL
5573	Martouzin-Neuville	5.02107	50.11579	NL
3350	Neerlinter	5.02226	50.83974	NL
2430	Vorst (Kempen)	5.0242977	51.0873823	NL
2430	Laakdal	5.0242977	51.0873823	FR
5333	Sorinne-la-Longue	5.02551	50.3893	NL
3400	Laar	5.02572	50.77158	NL
5555	Baillamont	5.026417	49.8994166	NL
5300	Sclayn	5.0277233	50.4896345	NL
4287	Racour	5.02996	50.74006	NL
4219	Ambresin	5.03057	50.63045	NL
3400	Wange	5.03176	50.78598	NL
4280	Grand-Hallet	5.03222	50.69555	NL
4287	Lincent	5.03614	50.71275	NL
5380	Bierwart	5.03628	50.55582	NL
5590	Sovet	5.0364195	50.2964987	NL
3350	Neerhespen	5.03655	50.79538	NL
3350	Overhespen	5.03655	50.79538	NL
3350	Linter	5.03661	50.84151	NL
3470	Ransberg	5.03683	50.87398	NL
5300	Bonneville	5.0369958	50.4719693	NL
5572	Focant	5.0379324	50.1317614	NL
6833	Vivy	5.0384163	49.866876	NL
5570	Honnay	5.0393176	50.0816488	NL
5563	Hour	5.0403821	50.1617078	NL
3400	Landen	5.042102	50.7628602	NL
2382	Poppel	5.0431801	51.4471741	NL
5590	Ach?e	5.0456342	50.2666792	NL
4219	Acosse	5.04657	50.59277	NL
4280	Thisnes	5.04677	50.6658	NL
4210	Hann?he	5.04788	50.57793	NL
3400	Neerwinden	5.0489	50.75318	NL
3400	Overwinden	5.0489	50.75318	FR
3404	Neerlanden	5.0489	50.75318	NL
5562	Custinne	5.0490632	50.2109877	NL
3350	Drieslinter	5.05048	50.84605	NL
5360	Natoye	5.05804	50.34301	NL
6833	Ucimont	5.058436	49.8317003	NL
5590	Conneux	5.0596284	50.2500686	NL
5590	Braibant	5.0606598	50.3131545	NL
3350	Melkwezer	5.06139	50.8253	NL
5564	Wanlin	5.0620298	50.1595134	NL
3350	Orsmaal-Gussenhoven	5.0622222	50.8041667	NL
3401	Waasmont	5.06231	50.72724	NL
4280	Crehen	5.0634	50.65993	NL
6920	Wellin	5.0650474	50.0575065	NL
6929	Gembes	5.0656928	49.9948698	NL
5555	Graide	5.0661187	49.951486	NL
3470	Kortenaken	5.0663974	50.8973765	NL
4217	Waret-l'Ev?ue	5.0666104	50.5563597	NL
5300	Landenne	5.0669512	50.5149815	NL
6920	Sohier	5.0678053	50.068318	NL
5334	Flor?	5.06885	50.3742	NL
4280	Avin	5.06932	50.62215	NL
3545	Loksbergen	5.06952	50.93429	NL
3290	Webbekom	5.0720072	50.9722766	NL
5340	Haltinne	5.07501	50.4511	NL
5340	Gesves	5.0755536	50.4024613	NL
6832	Sensenruth	5.0762113	49.8244628	NL
3400	Rumsdorp	5.07623	50.76619	NL
4210	Burdinne	5.07643	50.58411	NL
4280	Hannut	5.0785669	50.6710009	NL
4280	Avernas-le-Bauduin	5.07861	50.69428	NL
2450	Meerhout	5.0786111	51.1313889	NL
6850	Carlsbourg	5.0822437	49.8947012	NL
4280	Moxhe	5.08346	50.63057	NL
3440	Helen-Bos	5.0841667	50.8175	NL
2470	Retie	5.0842508	51.2669664	NL
3290	Schaffen	5.08484	50.99975	NL
3401	Walsbets	5.08528	50.73723	NL
2370	Arendonk	5.0863348	51.322049	NL
6929	Porcheresse (Lux.)	5.0870126	49.9782394	NL
5560	Ciergnon	5.0881633	50.167647	NL
3980	Tessenderlo	5.0881938	51.0642666	NL
5555	Naom·5.089279	49.9220528	NL	
4260	Ciplet	5.08951	50.61689	NL
6830	Bouillon	5.0905007	49.7892158	NL
4280	Bertr?	5.09133	50.69521	NL
5360	Hamois	5.0922322	50.3453749	NL
4217	H?on	5.0922925	50.5526795	NL
6924	Lomprez	5.092396	50.0762069	NL
4210	Lamontz?	5.09254	50.58441	NL
3404	Attenhoven	5.09308	50.76652	NL
5300	Seilles	5.0931162	50.5002414	NL
5580	Lavaux-Sainte-Anne	5.09357	50.11482	NL
6831	Noirefontaine	5.0942677	49.8202036	NL
3401	Walshoutem	5.09553	50.72373	NL
5300	Andenne	5.0955556	50.4888889	NL
4280	Villers-le-Peuplier	5.09584	50.6562	NL
3290	Deurne (Bt.)	5.09648	51.03936	NL
3290	Diest	5.0978641	51.000489	NL
3440	Budingen	5.09811	50.8654	NL
3440	Dormaal	5.0985	50.80722	NL
3440	Zoutleeuw	5.1	50.8333333	NL
5590	Ciney	5.1008307	50.2956773	NL
3401	Wezeren	5.10485	50.73008	NL
3545	Zelem	5.10579	50.97813	NL
3450	Geetbets	5.1095641	50.8902757	NL
5590	Leignon	5.1098975	50.2677216	NL
6834	Bellevaux	5.1101023	49.8405538	NL
3545	Halen	5.11117	50.9485	NL
3440	Halle-Booienhoven	5.11168	50.80475	NL
5580	Villers-sur-Lesse	5.11367	50.15352	NL
4280	Poucet	5.11653	50.67588	NL
4260	Ville-en-Hesbaye	5.11665	50.61768	NL
5300	Coutisse	5.1166532	50.4629612	NL
2480	Dessel	5.116973	51.238107	NL
2400	Mol	5.1170647	51.191087	NL
4260	Avennes	5.11782	50.62882	NL
6929	Daverdisse	5.1182335	50.020301	NL
6852	Opont	5.1195934	49.9355975	NL
4217	Lavoir	5.1196405	50.550264	NL
6851	Nollevaux	5.1210695	49.8712705	NL
5590	Chevetogne	5.1217844	50.2230794	NL
4218	Couthuin	5.1224958	50.5314526	NL
5580	Mont-Gauthier	5.12273	50.21029	NL
5363	Emptinne	5.12309	50.32543	NL
4280	Cras-Avernas	5.12363	50.69733	NL
4280	Blehen	5.12395	50.6589	NL
5364	Schaltin	5.12452	50.35894	NL
4280	Trogn?	5.12477	50.68725	NL
5340	Sor?	5.12602	50.39932	NL
4210	Oteppe	5.1263	50.57978	NL
3890	Montenaken	5.12721	50.72101	NL
4280	Lens-Saint-Remy	5.13155	50.65099	NL
3806	Velm	5.13162	50.77931	NL
3450	Grazen	5.13164	50.87478	NL
4260	Braives	5.1333333	50.6166667	NL
3540	Donk	5.13438	50.93814	NL
6850	Paliseul	5.1345943	49.9037127	NL
6922	Halma	5.1363449	50.0757255	NL
3560	Linkhout	5.13687	50.96812	NL
3890	Gingelom	5.138654	50.74713	NL
3803	Wilderen	5.14136	50.81587	NL
3560	Meldert (Limb.)	5.1418	50.99867	NL
3890	Niel-bij-Sint-Truiden	5.14205	50.74217	NL
5580	Ave-et-Auffe	5.14246	50.11272	NL
6836	Dohan	5.1428394	49.7960885	NL
3945	Kwaadmechelen	5.14416	51.10072	NL
6830	Les Hayons	5.1453939	49.8129802	NL
3803	Duras	5.14638	50.83552	NL
5580	Lessive	5.14662	50.13921	NL
4210	Marneffe	5.14674	50.58038	NL
4280	Abolens	5.14886	50.67302	NL
3890	Kortijs	5.14944	50.70745	NL
3803	Runkelen	5.15088	50.84681	NL
6921	Chanly	5.1540758	50.0796147	NL
5351	Haillot	5.1542	50.44215	NL
3800	Halmaal	5.15574	50.80589	NL
4250	Lens-Saint-Servais	5.15585	50.66357	NL
5580	Eprave	5.15913	50.14399	NL
6890	Redu	5.1597629	50.0075195	NL
6853	Framont	5.1605186	49.9192841	NL
2491	Olmen	5.160699	51.1338157	NL
3803	Gorsem	5.16195	50.83483	NL
4261	Latinne	5.16401	50.62475	NL
6856	Fays-les-Veneurs	5.1643785	49.8577639	NL
3850	Binderveld	5.16481	50.8608	NL
4520	Huccorgne	5.1655285	50.5672767	NL
3454	Rummen	5.16568	50.88902	NL
4250	Bo·he	5.16646	50.68214	NL
5350	Ohey	5.1673861	50.4145401	NL
3890	Vorsen	5.16858	50.70391	NL
3540	Herk-de-Stad	5.1687329	50.939241	NL
4260	Fallais	5.17039	50.61022	NL
5590	Pessoux	5.170961	50.2830932	NL
3583	Paal	5.17165	51.03953	NL
5352	Perwez-Haillot	5.17174	50.45213	NL
5350	Evelette	5.17364	50.41189	NL
4263	Tourinne (Lg.)	5.17457	50.63902	NL
5362	Achet	5.17493	50.33299	NL
6850	Offagne	5.1749738	49.8861615	NL
6820	Muno	5.1751412	49.7163845	NL
6927	Resteigne	5.1761749	50.0836994	NL
3891	Buvingen	5.17767	50.75294	NL
3945	Ham	5.1777363	51.1038173	NL
3800	Kerkom-bij-Sint-Truiden	5.17787	50.77429	NL
6852	Maissin	5.1791072	49.9646508	NL
3891	Muizen (Limb.)	5.17944	50.76024	NL
3945	Oostham	5.18022	51.10373	NL
3891	Borlo	5.18135	50.74216	NL
4254	Ligney	5.18227	50.66148	NL
4250	Geer	5.1828092	50.6701762	NL
4260	Fumal	5.18313	50.58661	NL
6880	Auby-sur-Semois	5.1831373	49.8158343	NL
5354	Jallet	5.18338	50.44328	NL
5370	Flostoy	5.18479	50.3891	NL
4500	Ben-Ahin	5.1852407	50.5019819	NL
4520	Moha	5.186209	50.5476918	NL
4253	Darion	5.18654	50.66458	NL
5580	Han-sur-Lesse	5.18756	50.12543	NL
3850	Nieuwerkerken (Limb.)	5.18869	50.86475	NL
4257	Rosoux-Crenwick	5.18949	50.70741	NL
3540	Schulen	5.19052	50.95991	NL
3560	Lummen	5.1908333	50.9861111	NL
4520	Bas-Oha	5.1908989	50.5262731	NL
5361	Mohiville	5.1924	50.31812	NL
5590	Haversin	5.19571	50.24919	NL
4530	Vieux-Waleffe	5.19769	50.61613	NL
4252	Omal	5.19937	50.65584	NL
6880	Jehonville	5.2003751	49.9068245	NL
5580	Buissonville	5.20186	50.2164	NL
6880	Cugnon	5.202591	49.8023095	NL
6890	Transinne	5.2035647	50.000543	NL
4250	Hollogne-sur-Geer	5.20541	50.6766	NL
5361	Scy	5.20718	50.30479	NL
3540	Berbroek	5.20843	50.95032	NL
3800	Aalst (Limb.)	5.20898	50.78166	NL
3890	Jeuk	5.20969	50.73427	NL
2490	Balen	5.2100666	51.1578305	NL
4257	Berloz	5.21265	50.69875	NL
4257	Corswarem	5.21324	50.71078	NL
4520	Wanze	5.2141011	50.534476	NL
3891	Mielen-Boven-Aalst	5.21497	50.75578	NL
6927	Tellin	5.21592	50.0784639	NL
3581	Beverlo	5.21898	51.0873	NL
6820	Florenville	5.220133	49.7270823	NL
3800	Sint-Truiden	5.2202655	50.8019192	NL
6890	Villance	5.2204298	49.9710047	NL
5353	Goesnes	5.22094	50.44001	NL
3580	Beringen	5.2214769	51.0473373	NL
6890	Anloy	5.221726	49.9494863	NL
3800	Brustem	5.22187	50.80565	NL
5580	Rochefort	5.2221665	50.1596036	NL
4317	Les Waleffes	5.22329	50.63779	NL
3510	Spalbeek	5.22338	50.94907	NL
3850	Wijer	5.22391	50.89838	NL
4530	Warnant-Dreye	5.22753	50.59523	NL
3971	Heppen	5.2285739	51.1088735	NL
5590	Serinchamps	5.2289113	50.2309395	NL
4300	Grand-Axhe	5.22958	50.68055	NL
4520	Vinalmont	5.2306622	50.5631337	NL
4530	Vaux-et-Borset	5.23207	50.61332	NL
3890	Boekhout	5.23353	50.74568	NL
6820	Fontenoille	5.2343041	49.7150554	NL
3800	Ordingen	5.23521	50.81285	NL
4300	Bettincourt	5.23584	50.71251	NL
5370	Havelange	5.2395547	50.3647074	NL
4500	Huy	5.2396514	50.5186775	NL
3850	Kozen	5.23985	50.87496	NL
5370	Jeneffe (Nam.)	5.24005	50.35407	NL
4520	Antheit	5.2403601	50.5489545	NL
5370	Porcheresse (Nam.)	5.24195	50.34012	NL
6887	Herbeumont	5.242033	49.780231	NL
4570	Marchin	5.242713	50.4667249	NL
6820	Sainte-C?ile	5.2428643	49.7296613	NL
4317	Borlez	5.24331	50.63325	NL
4317	Celles (Lg.)	5.24614	50.65415	NL
3510	Kermt (Hasselt)	5.24676	50.94767	NL
3800	Zepperen	5.24767	50.82116	NL
5580	Wavreille	5.24848	50.12104	NL
3800	Engelmanshoven	5.25092	50.77134	NL
5376	Mi?ret	5.25136	50.36643	NL
6880	Bertrix	5.2522222	49.8544444	NL
3512	Stevoort	5.25316	50.9183	NL
3870	Rukkelingen-Loon	5.25444	50.72784	NL
5377	Sinsin	5.254788	50.2748559	NL
4300	Waremme	5.25553	50.69757	NL
6900	Humain	5.25661	50.20501	NL
6890	Libin	5.2572	49.9815451	NL
4317	Aineffe	5.25749	50.62557	NL
4560	Pailhe	5.2582114	50.4228394	NL
5377	Nettinne	5.2588027	50.2907723	NL
6927	Bure	5.2594882	50.0883647	NL
4530	Villers-le-Bouillet	5.26006	50.57648	NL
4317	Faimes	5.26009	50.66183	NL
6824	Chassepierre	5.2603388	49.7076672	NL
3870	Mechelen-Bovelingen	5.26049	50.74054	NL
3970	Leopoldsburg	5.2605406	51.1188884	NL
3870	Bovelingen	5.26072	50.73945	NL
3840	Rijkel	5.26083	50.80989	NL
5370	Barvaux-Condroz	5.2609	50.32891	NL
3800	Gelinden	5.26092	50.76552	NL
4500	Tihange	5.2614551	50.5296991	NL
4570	Vyle-et-Tharoul	5.26152	50.4445	NL
3800	Groot-Gelmen	5.26296	50.78525	NL
6870	Mirwart	5.2638388	50.0564514	NL
5580	Jemelle	5.26623	50.1625	NL
6890	Smuid	5.2667659	50.018765	NL
4537	Chapon-Seraing	5.26904	50.60841	NL
3582	Koersel	5.27176	51.05844	NL
4317	Viemme	5.27224	50.64679	NL
3870	Klein-Gelmen	5.27694	50.76978	NL
6890	Ochamps	5.2775069	49.9249054	NL
4540	Ampsin	5.2780528	50.5413781	NL
5370	Verl?	5.27936	50.36784	NL
5377	Hogne	5.2797819	50.2490867	NL
6953	Lesterny	5.2801707	50.1116414	NL
6927	Grupont	5.2801805	50.0917339	NL
6953	Forri?es	5.2807925	50.1338181	NL
4300	Oleye	5.28113	50.71382	NL
3870	Batsheers	5.28134	50.73855	NL
3511	Stokrooie	5.28134	50.96619	NL
4530	Fize-Fontaine	5.28301	50.5851	NL
3840	Hoepertingen	5.28368	50.81235	NL
4300	Bovenistier	5.28389	50.6678	NL
3550	Heusden-Zolder	5.28417	51.03432	NL
4300	Bleret	5.28734	50.68929	NL
6900	On	5.28783	50.17382	NL
3870	Mettekoven	5.29062	50.78103	NL
4300	Lantremange	5.29561	50.71171	NL
5377	Heure (Nam.)	5.2964444	50.2942459	NL
6900	Aye	5.29695	50.22493	NL
3870	Opheers	5.29766	50.73972	NL
4577	Vierset-Barse	5.2976608	50.4834371	NL
3511	Kuringen	5.29789	50.94387	NL
4537	Seraing-le-Ch?eau	5.29829	50.62132	NL
6880	Orgeo	5.2995526	49.8364639	NL
4577	Modave	5.3007316	50.442375	NL
4560	Les Avins	5.3016015	50.4161066	NL
3870	Heers	5.30209	50.75368	NL
4350	Pousset	5.3042	50.69476	NL
5377	Waillet	5.304524	50.2604353	NL
3832	Ulbeek	5.30465	50.84381	NL
3870	Veulen	5.30578	50.76371	NL
6900	Hargimont	5.30625	50.18624	NL
6870	Awenne	5.3066608	50.0742236	NL
3500	Sint-Lambrechts-Herk	5.30741	50.89841	NL
3570	Alken	5.30767	50.87609	NL
4540	Amay	5.3096648	50.5482792	NL
3550	Heusden (Limb.)	5.30972	51.02345	NL
3550	Zolder	5.30972	51.02345	FR
3920	Lommel	5.3110063	51.2304193	NL
3830	Berlingen	5.31121	50.81971	NL
5374	Maffe	5.3114	50.35351	NL
4357	Limont	5.3114031	50.6605976	NL
6953	Ambly	5.3117953	50.1443527	NL
3840	Gotem	5.31351	50.80515	NL
6953	Masbourg	5.31374	50.11341	NL
4577	Str?-lez-Huy	5.314207	50.497227	NL
3870	Gutschoven	5.31713	50.77389	NL
6821	Lacuisine	5.3173471	49.7163512	NL
4537	Verlaine	5.3175	50.6069444	NL
6870	Arville	5.3193343	50.0323784	NL
3840	Voort	5.31971	50.79478	NL
4357	Haneffe	5.32046	50.63791	NL
4357	Donceel	5.3206722	50.6463528	NL
3831	Herten	5.32199	50.83517	NL
4560	Bois-et-Borsu	5.3227509	50.389298	NL
4540	Jehay	5.3247092	50.5724773	NL
3840	Kuttekoven	5.32603	50.809	NL
6887	Saint-M?ard	5.32805	49.81182	NL
3840	Hendrieken	5.32811	50.79889	NL
4350	Remicourt	5.32844	50.6802	NL
4360	Bergilers	5.32897	50.71543	NL
3940	Hechtel-Eksel	5.3295958	51.1105222	NL
6823	Villers-Devant-Orval	5.3314402	49.6196324	NL
3840	Broekom	5.33176	50.78238	NL
4557	Ramelot	5.3331598	50.4669858	NL
4540	Ombret	5.3332337	50.5421828	NL
4577	Outrelouxhe	5.3346305	50.5032627	NL
4350	Lamine	5.33472	50.68907	NL
3870	Horpmaal	5.33567	50.76049	NL
4540	Fl?e	5.3360181	50.5575651	NL
3830	Wellen	5.3362409	50.8436052	NL
5372	M?n	5.33634	50.36323	NL
5377	Baillonville	5.338665	50.2899325	NL
4360	Grandville	5.33881	50.72341	NL
4351	Hodeige	5.34167	50.69607	NL
6900	Waha	5.34296	50.21191	NL
3840	Borgloon	5.34302	50.80613	NL
6900	Marche-en-Famenne	5.3441606	50.2282896	NL
3500	Hasselt	5.3447405	50.9215166	NL
6870	Hatrival	5.3451907	50.0050863	NL
6950	Harsin	5.3479488	50.1735662	NL
4560	Terwagne	5.3482649	50.444343	NL
4360	Oreye	5.35	50.7166667	NL
4360	Lens-sur-Geer	5.35099	50.72114	NL
3501	Wimmertingen	5.35242	50.88411	NL
4357	Jeneffe (Lg.)	5.35434	50.65111	NL
4557	Ab?	5.3564959	50.4730891	NL
4470	Saint-Georges-sur-Meuse	5.356902	50.599795	NL
3870	Heks	5.35751	50.7701	NL
6800	Recogne	5.360253	49.9110798	NL
4480	Hermalle-sous-Huy	5.3619152	50.5591378	NL
3840	Groot-Loon	5.36338	50.79247	NL
4560	Clavier	5.3635498	50.4114801	NL
3840	Kerniel	5.36368	50.81632	NL
3940	Hechtel	5.3661124	51.1252349	NL
6950	Nassogne	5.3664669	50.1109477	NL
4550	Villers-le-Temple	5.37	50.5086111	NL
5377	Somme-Leuze	5.3700431	50.3399089	NL
3530	Houthalen-Helchteren	5.371824	51.029469	NL
6810	Izel	5.3722119	49.6937299	NL
3520	Zonhoven	5.37246	50.989287	NL
6840	Grandvoir	5.37272	49.85835	NL
6870	Saint-Hubert	5.3727272	50.0260067	NL
6800	Libramont-Chevigny	5.37458	49.91842	NL
5377	Noiseux	5.3746071	50.2991028	NL
3870	Vechmaal	5.37466	50.76141	NL
4350	Momalle	5.37581	50.68569	NL
3530	Houthalen	5.3763541	51.0314627	NL
4557	Tinlot	5.37723	50.47466	NL
3720	Kortessem	5.3781216	50.8625531	NL
4360	Otrange	5.37855	50.73601	NL
4460	Horion-Hoz?ont	5.37961	50.62834	NL
6952	Grune	5.3812924	50.1547678	NL
6887	Straimont	5.3815	49.79551	NL
4550	Yern?-Fraineux	5.3815141	50.5283821	NL
4347	Noville (Lg.)	5.3822669	50.6599134	NL
5377	Bonsin	5.3826276	50.3740147	NL
3530	Helchteren	5.3826921	51.0565512	NL
4367	Fize-le-Marsal	5.3855696	50.7023863	NL
6810	Chiny	5.386743	49.6989693	NL
3840	Bommershoven (Haren)	5.3876867	50.7881486	NL
6800	Saint-Pierre	5.3880072	49.9036915	NL
4557	Soheit-Tinlot	5.3885701	50.4834221	NL
6800	Bras	5.3892229	49.9750202	NL
4400	Gleixhe	5.3893727	50.6130146	NL
4367	Thys	5.390432	50.7225445	NL
3840	Gors-Opleeuw	5.39126	50.82123	NL
4480	Clermont-sous-Huy	5.3918142	50.569391	NL
3840	Jesseren (Kolmont)	5.393594	50.8053339	NL
4560	Ocquier	5.3937321	50.3956189	NL
3941	Eksel	5.3943545	51.1546138	NL
6870	Vesqueville	5.394529	50.0059895	NL
6840	Tournay	5.39765	49.85469	NL
4367	Crisn?	5.3977032	50.7173633	NL
3723	Guigoven	5.399157	50.8390899	NL
6812	Suxy	5.3993485	49.7639751	NL
4347	Fexhe-le-Haut-Clocher	5.3994597	50.665333	NL
3840	Haren (Borgloon)	5.39953	50.79274	NL
4557	Seny	5.4015811	50.4589883	NL
4480	Engis	5.4037136	50.5832252	NL
6941	Borlon	5.40511	50.379	NL
4400	Awirs	5.4061097	50.5999117	NL
6840	Grapfontaine	5.4062	49.8221	NL
4347	Freloux	5.4065984	50.6804933	NL
4347	Roloux	5.4065984	50.6804933	NL
6900	Roy	5.40707	50.18586	NL
4367	Kemexhe	5.4075417	50.6973611	NL
3700	Widooie (Haren)	5.4084338	50.7713726	NL
4550	Saint-S?erin	5.4112136	50.5298269	NL
6940	Grandhan	5.41132	50.32946	NL
3990	Wijchmaal	5.41311	51.13556	NL
3590	Diepenbeek	5.41336	50.91083	NL
6810	Jamoigne	5.4146049	49.694871	NL
3700	Lauw	5.4148753	50.7392355	NL
6941	Bende	5.41544	50.41954	NL
6951	Bande	5.41552	50.1670102	NL
6990	Marenne	5.41639	50.24251	NL
4367	Odeur	5.4164174	50.7064872	NL
3700	Piringen (Haren)	5.4178871	50.7864119	NL
4557	Fraiture	5.4194689	50.478433	NL
3722	Wintershoven	5.41968	50.85263	NL
4550	Nandrin	5.4198582	50.507161	NL
6811	Les Bulles	5.4201396	49.7127741	NL
6940	Septon	5.42168	50.35506	NL
6990	Fronville	5.42208	50.29448	NL
3900	Overpelt	5.4225379	51.2102694	NL
3840	Kolmont (Borgloon)	5.4230892	50.8031485	NL
3700	Kolmont (Tongeren)	5.42373	50.8041	NL
3700	Overrepen (Kolmont)	5.42373	50.8041	NL
3721	Vliermaalroot	5.4240097	50.8637784	NL
4460	Velroux	5.42437	50.6429	NL
3717	Herstappe	5.426	50.72653	NL
6769	G?ouville	5.426936	49.6204111	NL
4590	Warz?	5.42828	50.44929	NL
3724	Vliermaal	5.4289047	50.8394948	NL
4347	Voroux-Goreux	5.4291442	50.6548149	NL
3700	Haren (Tongeren)	5.430442	50.8078591	NL
6840	Neufch?eau	5.434177	49.8417539	NL
6940	Durbuy	5.4345624	50.3350543	NL
4340	Fooz	5.4359267	50.6759853	NL
4340	Villers-l'Ev?ue	5.4395108	50.7044467	NL
3700	Koninksem	5.43997	50.76531	NL
4400	Chokier	5.441932	50.5911345	NL
3910	Neerpelt	5.4422222	51.2277778	NL
3700	Rutten	5.4423901	50.7478825	NL
4400	Fl?alle	5.44335	50.60187	NL
3700	Neerrepen	5.444214	50.8110492	NL
4590	Ellemelle	5.44434	50.46752	NL
4120	Ehein	5.4444311	50.5452937	NL
6990	Hotton	5.44568	50.26728	NL
4400	Fl?alle-Haute	5.4459559	50.6001541	NL
6769	Sommethonne	5.4478548	49.5785062	NL
3730	Sint-Huibrechts-Hern	5.4492483	50.82985	NL
3732	Schalkhoven	5.4495653	50.8414306	NL
6800	Freux	5.4504457	49.9699861	NL
4460	Bierset	5.45092	50.655	NL
4121	Neuville-en-Condroz	5.4511519	50.5524877	NL
6840	Longlier	5.45288	49.85544	NL
4342	Hognoul	5.4543405	50.6814461	NL
4400	Mons-lez-Li?e	5.4558943	50.623374	NL
6840	Hamipr·5.45735	49.83749	NL	
6813	Termes	5.4578124	49.7078398	NL
6800	Sainte-Marie-Chevigny	5.4582979	49.9234787	NL
3700	Tongeren	5.459418	50.7805	NL
3730	Romershoven	5.4598837	50.855984	NL
3990	Peer	5.460475	51.129012	NL
6970	Tenneville	5.461307	50.0859055	NL
4340	Awans	5.4628633	50.666861	NL
3700	Riksingen	5.4632976	50.8051007	NL
4400	Ivoz-Ramet	5.4638963	50.5883864	NL
3990	Kleine-Brogel	5.4647358	51.1668592	NL
6860	Assenois	5.4651471	49.8015106	NL
4590	Ouffet	5.46538	50.4381	NL
4340	Oth?	5.4671194	50.7157403	NL
6800	Moircy	5.4695106	49.9895785	NL
6990	Hampteau	5.47042	50.25867	NL
4163	Tavier	5.4705965	50.4963213	NL
4460	Hollogne-aux-Pierres	5.47084	50.64034	NL
3700	Henis	5.47122	50.7992	NL
6767	Torgny	5.4740405	49.5080762	NL
3740	Beverst	5.475171	50.8902246	NL
4460	Gr?e-Hollogne	5.47566	50.63412	NL
6730	Saint-Vincent	5.4757436	49.6772976	NL
4120	Neupr·5.4761468	50.5326636	NL	
4400	Fl?alle-Grande	5.4765157	50.6087724	NL
6769	Meix-Devant-Virton	5.4779919	49.6056579	NL
3930	Achel	5.47953	51.25224	NL
6941	Tohogne	5.48013	50.37975	NL
3730	Werm	5.4802846	50.8328482	NL
6767	Lamorteau	5.4807287	49.5259975	NL
4120	Rotheux-Rimi?e	5.4810832	50.5346824	NL
6769	Villers-la-Loue	5.4821567	49.5745676	NL
3700	Diets-Heur	5.4828472	50.7453303	NL
4432	Xhendremael	5.4831	50.70502	NL
6767	Rouvroy	5.4833333	49.5333333	NL
6730	Rossignol	5.4856597	49.7175007	NL
4460	Gr?e-Berleur	5.4881954	50.6347184	NL
3730	Hoeselt	5.4911243	50.8497352	NL
6940	Barvaux-sur-Ourthe	5.49159	50.34768	NL
6800	Remagne	5.4943517	49.9766169	NL
3700	Berg (Limb.)	5.49494	50.79183	NL
4101	Jemeppe-sur-Meuse	5.4951966	50.6175969	NL
3910	Sint-Huibrechts-Lille	5.49576	51.22251	NL
6987	Hodister	5.49603	50.1999	NL
6730	Bellefontaine (Lux.)	5.4964735	49.6639401	NL
3700	Vreren	5.4974649	50.7515842	NL
6767	Dampicourt	5.4983333	49.5530556	NL
6767	Harnoncourt	5.4996269	49.5355121	NL
4100	Seraing	5.4996297	50.5838596	NL
6986	Halleux	5.5010126	50.1721642	NL
3600	Genk	5.5021	50.96613	NL
6971	Champlon	5.5021264	50.1074532	NL
3930	Hamont-Achel	5.5030556	51.2480556	NL
3700	's Herenelderen	5.5032825	50.8089063	NL
4162	Hody	5.5038981	50.4864593	NL
4431	Loncin	5.50521	50.66624	NL
4452	Wihogne	5.5066908	50.7271304	NL
6769	Robelmont	5.5078905	49.5944837	NL
6987	Rendeux	5.5081521	50.2348339	NL
3990	Grote-Brogel	5.50838	51.15435	NL
6681	Lavacherie	5.5100095	50.0528654	NL
3700	Nerem	5.5104893	50.7649963	NL
6997	Soy	5.51107	50.28564	NL
6730	Tintigny	5.5131279	49.6833444	NL
4432	Alleur	5.51338	50.67434	NL
4420	Montegn?	5.51414	50.64534	NL
3740	Rijkhoven	5.5150984	50.8329777	NL
4161	Villers-aux-Tours	5.5162168	50.4978813	NL
3740	Bilzen	5.5166463	50.8719054	NL
4160	Anthisnes	5.5198048	50.4812987	NL
3670	Meeuwen	5.5205	51.09867	NL
3700	Mal	5.5214638	50.7684738	NL
6860	Mellier	5.5221492	49.7685936	NL
6941	Bomal-sur-Ourthe	5.52348	50.37901	NL
6987	Beffe	5.52355	50.24502	NL
3670	Ellikom	5.52366	51.12719	NL
4122	Plainevaux	5.524289	50.5453134	NL
4450	Lantin	5.5246269	50.6885256	NL
4452	Paifve	5.5249034	50.7283378	NL
3950	Kaulille	5.52568	51.18717	NL
3740	Munsterbilzen	5.5261669	50.8897326	NL
4430	Ans	5.5265524	50.660213	NL
4450	Juprelle	5.5267686	50.7096477	NL
6680	Amberloup	5.5296068	50.0317221	NL
6680	Tillet	5.5296828	50.0104453	NL
6940	W?is	5.53048	50.32612	NL
3700	Sluizen	5.5314429	50.7653436	NL
6987	Marcourt	5.53161	50.21445	NL
4420	Saint-Nicolas (Lg.)	5.5321898	50.6292407	NL
3742	Martenslinde	5.5332305	50.8565985	NL
6724	Marbehan	5.5333333	49.7333333	NL
3770	Membruggen	5.5343399	50.8141975	NL
6762	Saint-Mard	5.5346766	49.5542548	NL
4100	Boncelles	5.5364671	50.5709023	NL
6860	L?lise	5.537628	49.800018	NL
4453	Villers-Saint-Sim?n	5.5388369	50.7111071	NL
3770	Genoelselderen	5.538845	50.80297	NL
6860	Ebly	5.5404417	49.8531341	NL
4420	Tilleur	5.54253	50.61757	NL
4000	Glain	5.54357	50.64786	NL
3740	Waltwilder	5.5441802	50.8658211	NL
4102	Ougr?	5.5443411	50.6012358	NL
4690	Glons	5.545018	50.7520728	NL
4000	Rocourt	5.54583	50.67589	NL
4180	Comblain-Fairon	5.54632	50.44628	NL
3670	Meeuwen-Gruitrode	5.54784	51.09495	NL
6680	Sainte-Ode	5.5480905	50.0199719	NL
3740	Kleine-Spouwen	5.5483654	50.8381087	NL
4180	Hamoir	5.5492373	50.4384106	NL
6642	Juseret	5.5492587	49.8797422	NL
6972	Erneuville	5.5493302	50.1128285	NL
3930	Hamont	5.54953	51.25272	NL
4190	Vieuxville	5.54955	50.39379	NL
3740	Grote-Spouwen	5.5519685	50.8315692	NL
6980	Beausaint	5.5539293	50.1700454	NL
4451	Voroux-lez-Liers	5.5549161	50.6875929	NL
6980	La Roche-en-Ardenne	5.5556243	50.1845991	NL
3770	Millen	5.5561104	50.7856375	NL
3740	Spouwen	5.5561118	50.8324673	NL
3746	Hoelbeek	5.5564999	50.8718626	NL
6997	Amonines	5.55809	50.26474	NL
6997	Erez?	5.55853	50.29172	NL
3670	Wijshagen	5.55881	51.10461	NL
6724	Rulles	5.5596208	49.7184613	NL
6740	Villers-sur-Semois	5.5598847	49.6984089	NL
6941	Heyd	5.56188	50.34725	NL
4170	Comblain-au-Pont	5.562621	50.4740721	NL
4000	Li?e	5.5628874	50.6350757	NL
3950	Reppel	5.56309	51.15506	NL
4450	Slins	5.5637966	50.7277297	NL
4042	Liers	5.5638281	50.693646	NL
6740	Sainte-Marie-sur-Semois	5.5640506	49.6714022	NL
4181	Filot	5.5668	50.42654	NL
6640	Vaux-lez-Rosi?es	5.5677	49.9125	NL
4130	Esneux	5.5684225	50.5350365	NL
4458	Fexhe-Slins	5.56954	50.72003	NL
6761	Latour	5.5705855	49.5575295	NL
4180	Comblain-la-Tour	5.57149	50.45427	NL
3665	As	5.5715438	50.9997751	NL
3770	Herderen	5.5723296	50.8065724	NL
4190	My	5.57341	50.40543	NL
3740	Eigenbilzen	5.5746355	50.8746121	NL
3740	Mopertingen	5.5756295	50.8606327	NL
4130	Tilff	5.5759823	50.5640699	NL
3690	Zutendaal	5.577468	50.932735	NL
6984	Hives	5.5776532	50.1505142	NL
6740	Etalle	5.57796	49.6694372	NL
4041	Vottem	5.5784697	50.6710455	NL
4171	Poulseur	5.5785541	50.508703	NL
3950	Bocholt	5.57899	51.17291	NL
6941	Izier	5.5795356	50.383803	NL
4690	Boirs	5.5800373	50.7509508	NL
6941	Villers-Sainte-Gertrude	5.5800674	50.3616152	NL
3960	Gerdingen	5.5802	51.14804	NL
3740	Rosmeer	5.5806307	50.8456546	NL
6760	Ethe	5.5819087	49.5796692	NL
3660	Opglabbeek	5.5825	51.0422222	NL
6724	Houdemont	5.5840477	49.7188508	NL
6640	Morhet	5.5841583	49.9633899	NL
3770	Vlijtingen	5.5842906	50.8320854	NL
6760	Virton	5.5862953	49.5871911	NL
3670	Gruitrode	5.58969	51.08999	NL
6997	Mormont	5.59218	50.327	NL
4041	Milmort	5.5922106	50.6903579	NL
6760	Ruette	5.5949257	49.5365538	NL
6743	Buzenol	5.5953405	49.6456653	NL
4690	Roclenge-sur-Geer	5.595398	50.7569143	NL
3770	Val-Meer	5.59628	50.7862227	NL
3960	Bree	5.59802	51.14099	NL
4031	Angleur	5.59943	50.61135	NL
3770	Riemst	5.6012328	50.8089945	NL
6640	Nives	5.6019444	49.9141667	NL
3960	Beek	5.60359	51.1558	NL
4190	Xhoris	5.60436	50.44549	NL
6686	Flamierge	5.6043762	50.0335764	NL
3668	Niel-bij-As	5.6045057	51.0176272	NL
4020	Bressoux	5.6059	50.63994	NL
4053	Embourg	5.6069213	50.5903039	NL
3740	Hees	5.609372	50.8466302	NL
4690	Bassenge	5.6100672	50.7591324	NL
3620	Gellik	5.6103183	50.8839114	NL
4030	Grivegn?	5.61074	50.6216	NL
4190	Ferri?es	5.611004	50.40087	NL
4682	Houtain-Saint-Sim?n	5.6118142	50.7398627	NL
6860	Witry	5.6131081	49.8596108	NL
4032	Ch??	5.6137	50.6122	NL
6983	Ortho	5.6139791	50.1250676	NL
3670	Neerglabbeek	5.61676	51.09144	NL
4680	Herm?	5.6184661	50.7079438	NL
6723	Habay-la-Vieille	5.6192831	49.7234933	NL
6640	Vaux-sur-Sure	5.6202645	49.9444556	NL
6721	Anlier	5.6208137	49.7718846	NL
6960	Dochamps	5.62343	50.23277	NL
3770	Zichen-Zussen-Bolder	5.6245555	50.7933496	NL
4680	Oupeye	5.6261513	50.7127029	NL
6760	Bleid	5.6280964	49.5693096	NL
4040	Herstal	5.628885	50.6787306	NL
3620	Veldwezelt	5.6305961	50.8677788	NL
4051	Vaux-sous-Ch?remont	5.6318794	50.6010507	NL
4140	Dolembreux	5.632889	50.5360657	NL
4682	Heure-le-Romain	5.6332813	50.7313994	NL
6640	Sibret	5.6341847	49.9706602	NL
4020	Jupille-sur-Meuse	5.63488	50.64547	NL
4690	Wonck	5.6358592	50.7669118	NL
6750	Signeulx	5.63805	49.55223	NL
4052	Beaufays	5.6387873	50.5586829	NL
3620	Lanaken	5.6398572	50.8919602	NL
3770	Vroenhoven	5.6400304	50.8263221	NL
4050	Chaudfontaine	5.6427754	50.5896391	NL
6720	Habay-la-Neuve	5.6460452	49.7280718	NL
4140	Sprimont	5.6460921	50.511565	NL
4683	Vivegnis	5.6467328	50.6948109	NL
3960	Opitter	5.64972	51.11657	NL
4140	Rouvreux	5.650192	50.4896684	NL
6742	Chantemelle	5.6526951	49.6529102	NL
4610	Beyne-Heusay	5.6558548	50.6216012	NL
6960	Harre	5.65617	50.35055	NL
6747	Saint-L?er (Lux.)	5.6566551	49.6119564	NL
4020	Wandre	5.65883	50.66715	NL
6982	Samr?	5.6590863	50.2002587	NL
3680	Opoeteren	5.6594443	51.0675622	NL
6960	Grandmenil	5.65989	50.29051	NL
6960	Manhay	5.6614499	50.2908885	NL
3960	Tongerlo (Limb.)	5.66145	51.12856	NL
3630	Meeswijk	5.6619185	50.969278	NL
3630	Maasmechelen	5.6619185	50.969278	NL
6750	Mussy-la-Ville	5.6620086	49.570673	NL
6637	Fauvillers	5.6627735	49.851562	NL
6720	Habay	5.6634857	49.7267434	NL
4624	Roms?	5.664504	50.610608	NL
4610	Bellaire	5.6654339	50.6449882	NL
4690	Eben-Emael	5.6656377	50.7933169	NL
6741	Vance	5.6658379	49.6713167	NL
4920	Ernonheid	5.6663	50.40338	NL
4920	Harz·5.66651	50.44096	NL	
4684	Haccourt	5.6688849	50.7303379	NL
3770	Kanne	5.6693136	50.814055	NL
4602	Cheratte	5.6707829	50.6837494	NL
4920	Aywaille	5.67584	50.47318	NL
4090	B.S.D. (Belg. Strijdkr. Duitsland)	5.6771849	50.6536196	NL
4090	F.B.A. (Forces Belges en Allemagne)	5.6771849	50.6536196	FR
4610	Queue-du-Bois	5.6789257	50.6373747	NL
4600	Lixhe	5.6793302	50.7567965	NL
4681	Hermalle-sous-Argenteau	5.6800351	50.7112191	NL
6960	Odeigne	5.68022	50.25693	NL
6720	Hachy	5.680422	49.7018218	NL
3620	Neerharen	5.6808314	50.9088851	NL
6687	Bertogne	5.6808856	50.0908293	NL
3630	Opgrimbie	5.6809579	50.9432913	NL
6660	Nadrin	5.6827858	50.159002	NL
4620	Fl?on	5.6831436	50.6162686	NL
4190	Werbomont	5.68396	50.38037	NL
4671	Saive	5.6858939	50.6530557	NL
4600	Vis·5.6866789	50.7436241	NL	
6640	Hompr·5.6869659	49.9443952	NL	
4601	Argenteau	5.6876046	50.6961555	NL
4623	Magn?	5.6884335	50.5996569	NL
6637	Hollange	5.6888102	49.9064911	NL
4140	Gomz·Andoumont	5.689683	50.5474223	NL
6688	Longchamps (Lux.)	5.6908206	50.0535609	NL
4671	Housse	5.6910818	50.6789837	NL
6660	Houffalize	5.6912202	50.1419014	NL
6960	Vaux-Chavanne	5.69123	50.30484	NL
4600	Lanaye	5.6945353	50.7816616	NL
4870	Trooz	5.6947222	50.5697222	NL
4600	Richelle	5.6952993	50.7136425	NL
3621	Rekem	5.6957272	50.9224749	NL
6747	Ch?illon	5.69657	49.6248	NL
4621	Retinne	5.6971829	50.6301336	NL
3680	Neeroeteren	5.6995386	51.0918046	NL
4870	For?	5.6998538	50.5835849	NL
4671	Barchon	5.69992	50.66866	NL
3630	Mechelen-aan-de-Maas	5.7018567	50.9797588	NL
4630	Tign?	5.70201	50.65127	NL
4672	Saint-Remy (Lg.)	5.7044415	50.6954433	NL
6750	Musson	5.7056943	49.5581782	NL
4631	Evegn?	5.70875	50.64217	NL
3630	Vucht	5.7106715	50.9787264	NL
4920	Sougn·Remouchamps	5.71185	50.47987	NL
6960	Malempr·5.71243	50.28173	NL	
3790	Moelingen	5.7134973	50.7570096	NL
3790	Mouland	5.7134973	50.7570096	FR
3630	Eisden	5.7140769	50.9854566	NL
4607	Feneur	5.7149169	50.7042957	NL
6600	Bastogne	5.7152666	50.0005973	NL
4141	Louveign·5.7162168	50.5302309	NL	
4630	Ayeneux	5.716811	50.6077652	NL
6666	Wibrin	5.7175372	50.1661241	NL
3650	Dilsen-Stokkem	5.7177778	51.0313889	NL
6717	Nobressart	5.7178818	49.7399967	NL
3631	Uikhoven	5.7183356	50.923677	NL
3631	Boorsem	5.7197843	50.9408237	NL
6747	Meix-le-Tige	5.72069	49.61709	NL
4630	Micheroux	5.72117	50.6265063	NL
4870	Fraipont	5.7238334	50.5656406	NL
4670	Bl?ny	5.7246643	50.6792685	NL
3650	Lanklaar	5.7262	51.0188	NL
4670	Trembleur	5.7264581	50.695398	NL
4632	C?exhe-Heuseux	5.7264702	50.6541483	NL
6792	Rachecourt	5.7267117	49.5911813	NL
4607	Berneau	5.7306194	50.7427406	NL
6717	Thiaumont	5.7307767	49.7153956	NL
4990	Bra	5.7323	50.32339	NL
4987	Chevron	5.7325146	50.3802778	NL
4607	Dalhem	5.7331059	50.7205105	NL
6630	Martelange	5.7333333	49.8166667	NL
4987	Lorc·5.7350483	50.4162542	NL	
3630	Leut	5.7350908	50.9900244	NL
1105	SOC	5.73572	50.0107	NL
4633	Melen	5.7359996	50.6460486	NL
4870	Nessonvaux	5.7370077	50.5729394	NL
4630	Soumagne	5.7372708	50.6162143	NL
3640	Molenbeersel	5.73758	51.17002	NL
6663	Mabompr·5.7403204	50.0989674	NL	
3640	Kinrooi	5.74113	51.14552	NL
3650	Rotem	5.74118	51.05297	NL
6792	Halanzy	5.7431355	49.5594682	NL
4670	Mortier	5.7434908	50.6850484	NL
6700	Heinsch	5.7436111	49.6988889	NL
3650	Stokkem	5.74418	51.02364	NL
4607	Bombaye	5.7448822	50.7307281	NL
4877	Olne	5.7465679	50.5900615	NL
6661	Tailles	5.7466501	50.2265221	NL
6600	Villers-la-Bonne-Eau	5.7481956	49.9340321	NL
3650	Elen	5.75083	51.06655	NL
6637	Tintange	5.751347	49.8800473	NL
4606	Saint-Andr·5.7530732	50.6956754	NL	
4607	Mortroux	5.7536961	50.7114781	NL
6782	Habergy	5.7581624	49.6145594	NL
4653	Bolland	5.76037	50.66107	NL
6600	Noville (Lux.)	5.7607706	50.0637281	NL
3798	Fouron-le-Comte	5.7669272	50.7605269	NL
3798	's Gravenvoeren	5.7669272	50.7605269	FR
4608	Warsage	5.7691321	50.7355105	NL
6661	Mont (Lux.)	5.7695926	50.1532229	NL
4650	Jul?ont	5.7713927	50.6860172	NL
4608	Neufch?eau (Lg.)	5.7757062	50.719368	NL
4652	Xhendelesse	5.7782579	50.6050929	NL
6700	Toernich	5.7791223	49.652491	NL
4987	Rahier	5.7807855	50.3848697	NL
3680	Maaseik	5.7837625	51.0983909	NL
6717	Attert	5.7863474	49.7506158	NL
6600	Wardin	5.7882474	49.9911002	NL
6717	Nothomb	5.7885145	49.7723268	NL
4861	Soiron	5.7904364	50.591806	NL
4910	La Reid	5.790589	50.4893888	NL
4990	Lierneux	5.7950312	50.2848031	NL
4860	Cornesse	5.7955711	50.5723031	NL
6780	Wolkrange	5.7994452	49.6337423	NL
6700	Arlon	5.8	49.6833333	NL
3640	Ophoven	5.80204	51.12559	NL
4860	Pepinster	5.8033087	50.5682638	NL
4654	Charneux	5.8041681	50.6698339	NL
4987	Stoumont	5.8086125	50.4068434	NL
6690	Bihain	5.808717	50.2380618	NL
6790	Aubange	5.808873	49.5608954	NL
6717	Tontelange	5.8098272	49.7259512	NL
4650	Grand-Rechain	5.8099828	50.6074436	NL
3790	Fouron-Saint-Martin	5.8122336	50.7485199	NL
3790	Sint-Martens-Voeren	5.8122336	50.7485199	NL
4910	Theux	5.8141884	50.5350997	NL
4860	Wegnez	5.8166757	50.5792278	NL
6700	Bonnert	5.8187693	49.7108981	NL
4651	Battice	5.8207169	50.6474662	NL
6780	Messancy	5.8214036	49.6216258	NL
3792	Fouron-Saint-Pierre	5.8226791	50.738357	NL
3792	Sint-Pieters-Voeren	5.8226791	50.738357	FR
3640	Kessenich	5.82297	51.15142	NL
6704	Guirsch	5.8286286	49.7098711	NL
4983	Basse-Bodeux	5.8305234	50.3565744	NL
4800	Lambermont	5.8323452	50.5904288	NL
4650	Chaineux	5.8344045	50.6316775	NL
4800	Petit-Rechain	5.83447	50.6144	NL
4990	Arbrefontaine	5.83541	50.30276	NL
6780	Hondelange	5.8362868	49.6334358	NL
6600	Longvilly	5.8364836	50.0248837	NL
6674	Montleban	5.8376462	50.2120826	NL
6662	Tavigny	5.8393883	50.1088963	NL
3790	Fourons	5.8409039	50.7464187	NL
3790	Voeren	5.8409039	50.7464187	FR
4980	Fosse (Lg.)	5.8412377	50.3411966	NL
4650	Herve	5.8425762	50.6317827	NL
1910	Berg (Bt.)	5.8439044	51.1316639	NL
4800	Ensival	5.8460072	50.5812596	NL
6781	S?ange	5.8466761	49.6093822	NL
4987	La Gleize	5.8491514	50.41126	NL
6791	Athus	5.8497214	49.5792831	NL
4820	Dison	5.8509177	50.6105586	NL
4880	Aubel	5.8592295	50.7021296	NL
4800	Verviers	5.8592484	50.5893413	NL
4890	Thimister	5.8640069	50.654195	NL
4890	Thimister-Clermont	5.8640147	50.6542116	NL
6673	Cherain	5.8653043	50.1805372	NL
4802	Heusy	5.8662821	50.5745445	NL
4900	Spa	5.8666667	50.4833333	NL
6706	Autelbas	5.868177	49.6482984	NL
6690	Vielsalm	5.8711513	50.2517425	NL
3793	Teuven	5.8759546	50.7518324	NL
4910	Polleur	5.8807055	50.5390463	NL
3791	Remersdaal	5.8808478	50.7315308	NL
4890	Clermont (Lg.)	5.8845514	50.6590232	NL
4821	Andrimont	5.88541	50.61596	NL
4801	Stembert	5.8928874	50.5923294	NL
6698	Grand-Halleux	5.9066265	50.3260048	NL
4980	Trois-Ponts	5.9177072	50.3528769	NL
6671	Bovigny	5.919055	50.2250817	NL
4831	Bilstain	5.9198628	50.6243826	NL
4852	Hombourg	5.9211923	50.7233365	NL
4980	Wanne	5.921651	50.3550332	NL
6670	Limerl·5.9243825	50.1572636	NL	
6670	Gouvy	5.9245645	50.1457074	NL
4841	Henri-Chapelle	5.9271962	50.669138	NL
4970	Stavelot	5.9304135	50.3941099	NL
4845	Sart-lez-Spa	5.9319544	50.516858	NL
4851	Sippenaeken	5.9337213	50.750727	NL
4830	Limbourg	5.9357239	50.6036651	NL
4970	Francorchamps	5.9522139	50.4543456	NL
4834	Go·5.9567645	50.6061874	NL	
4850	Montzen	5.9619403	50.707579	NL
4840	Welkenraedt	5.9630388	50.6568973	NL
4850	Plombi?es	5.9635214	50.7193635	NL
4845	Jalhay	5.9662952	50.5588226	NL
4837	Baelen (Lg.)	5.9692046	50.6301763	NL
4710	Lontzen	5.9875637	50.6816693	NL
4850	Moresnet	5.9889959	50.721135	NL
6692	Petit-Thier	5.9894564	50.3026042	NL
4851	Gemmenich	5.9943856	50.7453476	NL
4837	Membach	5.99501	50.61905	NL
6672	Beho	5.9980109	50.2196586	NL
4960	Bellevaux-Ligneuville	6.00577	50.39067	NL
4720	Kelmis	6.0128347	50.7246443	NL
4720	La Calamine	6.0128347	50.7246443	FR
4721	Neu-Moresnet	6.0213233	50.7160816	NL
4960	Malmedy	6.0283118	50.4246679	NL
4728	Hergenrath	6.0314237	50.7089534	NL
4960	Beverc·6.035721	50.4409143	NL	
4780	Recht	6.04333	50.3344	NL
4711	Walhorn	6.04549	50.67469	NL
4701	Kettenis	6.046896	50.6472977	NL
4784	Crombach	6.068955	50.2594213	NL
4730	Hauset	6.0696188	50.7104323	NL
4791	Thommen	6.07391	50.21821	NL
4731	Eynatten	6.0834561	50.6921704	NL
4700	Eupen	6.1011205	50.6133173	NL
4730	Raeren	6.1097331	50.6770198	NL
4950	Weismes	6.1115604	50.4148914	NL
4950	Waimes	6.1115679	50.4149033	NL
4950	Sourbrodt	6.11175	50.47895	NL
4950	Robertville	6.122142	50.4545013	NL
4780	Saint-Vith	6.130456	50.2797224	NL
4780	Sankt Vith	6.130456	50.2797224	FR
4790	Reuland	6.1376625	50.1966077	NL
4790	Burg-Reuland	6.1376625	50.1966077	FR
4950	Faymonville	6.1408548	50.4027387	NL
4783	Lommersweiler	6.1655027	50.2388377	NL
4770	Ambl?e	6.1694635	50.3542165	NL
4770	Amel	6.1694635	50.3542165	FR
4770	Meyerode	6.190146	50.32617	NL
4750	B·genbach	6.2042885	50.4266339	NL
4750	Butgenbach	6.2042885	50.4266339	FR
4771	Heppenbach	6.2185552	50.3627954	NL
4750	Elsenborn	6.22028	50.4744	NL
4782	Schoenberg	6.2652657	50.2887806	NL
4782	Sch?berg	6.2652657	50.2887806	FR
4761	Rocherath	6.3005753	50.4365286	NL
4760	Bullange	6.3042715	50.3739957	NL
4760	B·lingen	6.3042715	50.3739957	FR
4760	Manderfeld	6.34	50.3305556	NL
